Type,Definition,Name,Address,Lat,Lon,Kana,Ward,WardCode
地域防災拠点,被災した住民の避難生活の場所、情報受伝達、備蓄機能を備えた拠点です。,生麦小学校,神奈川県横浜市鶴見区生麦四丁目15-1,35.49547584,139.6710972,ナマムギショウガッコウ,鶴見区,01
地域防災拠点,被災した住民の避難生活の場所、情報受伝達、備蓄機能を備えた拠点です。,豊岡小学校,神奈川県横浜市鶴見区豊岡町27-1,35.51239349,139.6750827,トヨオカショウガッコウ,鶴見区,01
地域防災拠点,被災した住民の避難生活の場所、情報受伝達、備蓄機能を備えた拠点です。,鶴見小学校,神奈川県横浜市鶴見区鶴見中央三丁目19-1,35.50899783,139.6838254,ツルミショウガッコウ,鶴見区,01
地域防災拠点,被災した住民の避難生活の場所、情報受伝達、備蓄機能を備えた拠点です。,潮田小学校,神奈川県横浜市鶴見区向井町3丁目82-1,35.50652713,139.6899645,ウシオダショウガッコウ,鶴見区,01
地域防災拠点,被災した住民の避難生活の場所、情報受伝達、備蓄機能を備えた拠点です。,下野谷小学校,神奈川県横浜市鶴見区下野谷町2丁目49,35.50049298,139.6816234,シタノヤショウガッコウ,鶴見区,01
地域防災拠点,被災した住民の避難生活の場所、情報受伝達、備蓄機能を備えた拠点です。,市場小学校,神奈川県横浜市鶴見区元宮一丁目13-1,35.52290962,139.6829518,イチバショウガッコウ,鶴見区,01
地域防災拠点,被災した住民の避難生活の場所、情報受伝達、備蓄機能を備えた拠点です。,平安小学校,神奈川県横浜市鶴見区平安町2丁目9-1,35.51222005,139.6920299,ヘイアンショウガッコウ,鶴見区,01
地域防災拠点,被災した住民の避難生活の場所、情報受伝達、備蓄機能を備えた拠点です。,末吉小学校,神奈川県横浜市鶴見区上末吉一丁目9-1,35.52498786,139.6694627,スエヨシショウガッコウ,鶴見区,01
地域防災拠点,被災した住民の避難生活の場所、情報受伝達、備蓄機能を備えた拠点です。,上末吉小学校,神奈川県横浜市鶴見区上末吉五丁目24-1,35.53397133,139.6622135,カミスエヨシショウガッコウ,鶴見区,01
地域防災拠点,被災した住民の避難生活の場所、情報受伝達、備蓄機能を備えた拠点です。,下末吉小学校,神奈川県横浜市鶴見区下末吉二丁目25-6,35.52262994,139.6749124,シモスエヨシショウガッコウ,鶴見区,01
地域防災拠点,被災した住民の避難生活の場所、情報受伝達、備蓄機能を備えた拠点です。,旭小学校,神奈川県横浜市鶴見区北寺尾四丁目25-1,35.51593777,139.6548356,アサヒショウガッコウ,鶴見区,01
地域防災拠点,被災した住民の避難生活の場所、情報受伝達、備蓄機能を備えた拠点です。,東台小学校,神奈川県横浜市鶴見区東寺尾東台12-1,35.50347728,139.6643319,ヒガシダイショウガッコウ,鶴見区,01
地域防災拠点,被災した住民の避難生活の場所、情報受伝達、備蓄機能を備えた拠点です。,岸谷小学校,神奈川県横浜市鶴見区岸谷一丁目6-1,35.49375745,139.6620769,キシヤショウガッコウ,鶴見区,01
地域防災拠点,被災した住民の避難生活の場所、情報受伝達、備蓄機能を備えた拠点です。,矢向小学校,神奈川県横浜市鶴見区矢向三丁目8-1,35.5332475,139.6793582,ヤコウショウガッコウ,鶴見区,01
地域防災拠点,被災した住民の避難生活の場所、情報受伝達、備蓄機能を備えた拠点です。,入船小学校,神奈川県横浜市鶴見区浜町1丁目1-1,35.5008709,139.692913,イリフネショウガッコウ,鶴見区,01
地域防災拠点,被災した住民の避難生活の場所、情報受伝達、備蓄機能を備えた拠点です。,寺尾小学校,神奈川県横浜市鶴見区東寺尾五丁目19-1,35.5039221,139.6575724,テラオショウガッコウ,鶴見区,01
地域防災拠点,被災した住民の避難生活の場所、情報受伝達、備蓄機能を備えた拠点です。,汐入小学校,神奈川県横浜市鶴見区汐入町2丁目36,35.49865566,139.6879339,シオイリショウガッコウ,鶴見区,01
地域防災拠点,被災した住民の避難生活の場所、情報受伝達、備蓄機能を備えた拠点です。,馬場小学校,神奈川県横浜市鶴見区馬場七丁目20-1,35.50981396,139.6443132,ババショウガッコウ,鶴見区,01
地域防災拠点,被災した住民の避難生活の場所、情報受伝達、備蓄機能を備えた拠点です。,駒岡小学校,神奈川県横浜市鶴見区駒岡三丁目14-1,35.5286923,139.6547874,コマオカショウガッコウ,鶴見区,01
地域防災拠点,被災した住民の避難生活の場所、情報受伝達、備蓄機能を備えた拠点です。,獅子ケ谷小学校,神奈川県横浜市鶴見区獅子ケ谷一丁目19-1,35.51698934,139.6510219,シシガヤショウガッコウ,鶴見区,01
地域防災拠点,被災した住民の避難生活の場所、情報受伝達、備蓄機能を備えた拠点です。,上寺尾小学校,神奈川県横浜市鶴見区馬場三丁目21-21,35.50732575,139.6541116,カミテラオショウガッコウ,鶴見区,01
地域防災拠点,被災した住民の避難生活の場所、情報受伝達、備蓄機能を備えた拠点です。,新鶴見小学校,神奈川県横浜市鶴見区江ケ崎町2-1,35.53267872,139.6770859,シンツルミショウガッコウ,鶴見区,01
地域防災拠点,被災した住民の避難生活の場所、情報受伝達、備蓄機能を備えた拠点です。,市場中学校,神奈川県横浜市鶴見区市場下町1-1,35.51482949,139.6836623,イチバチュウガッコウ,鶴見区,01
地域防災拠点,被災した住民の避難生活の場所、情報受伝達、備蓄機能を備えた拠点です。,矢向中学校,神奈川県横浜市鶴見区矢向一丁目8-24,35.52893886,139.6752097,ヤコウチュウガッコウ,鶴見区,01
地域防災拠点,被災した住民の避難生活の場所、情報受伝達、備蓄機能を備えた拠点です。,鶴見中学校,神奈川県横浜市鶴見区鶴見中央三丁目14-1,35.50959807,139.6846885,ツルミチュウガッコウ,鶴見区,01
地域防災拠点,被災した住民の避難生活の場所、情報受伝達、備蓄機能を備えた拠点です。,末吉中学校,神奈川県横浜市鶴見区下末吉六丁目13-1,35.52290188,139.6641991,スエヨシチュウガッコウ,鶴見区,01
地域防災拠点,被災した住民の避難生活の場所、情報受伝達、備蓄機能を備えた拠点です。,寺尾中学校,神奈川県横浜市鶴見区北寺尾三丁目13-1,35.51969366,139.6591753,テラオチュウガッコウ,鶴見区,01
地域防災拠点,被災した住民の避難生活の場所、情報受伝達、備蓄機能を備えた拠点です。,生麦中学校,神奈川県横浜市鶴見区岸谷二丁目1-1,35.49356923,139.6596085,ナマムギチュウガッコウ,鶴見区,01
地域防災拠点,被災した住民の避難生活の場所、情報受伝達、備蓄機能を備えた拠点です。,潮田中学校,神奈川県横浜市鶴見区向井町4丁目83,35.50639664,139.6916931,ウシオダチュウガッコウ,鶴見区,01
地域防災拠点,被災した住民の避難生活の場所、情報受伝達、備蓄機能を備えた拠点です。,寛政中学校,神奈川県横浜市鶴見区寛政町23-1,35.50168132,139.6997778,カンセイチュウガッコウ,鶴見区,01
地域防災拠点,被災した住民の避難生活の場所、情報受伝達、備蓄機能を備えた拠点です。,上の宮中学校,神奈川県横浜市鶴見区上の宮一丁目26-33,35.51221996,139.6390638,カミノミヤチュウガッコウ,鶴見区,01
地域防災拠点,被災した住民の避難生活の場所、情報受伝達、備蓄機能を備えた拠点です。,三ツ沢小学校,神奈川県横浜市神奈川区三ッ沢中町4-17,35.47595792,139.6085961,ミツザワショウガッコウ,神奈川区,02
地域防災拠点,被災した住民の避難生活の場所、情報受伝達、備蓄機能を備えた拠点です。,青木小学校,神奈川県横浜市神奈川区桐畑17,35.47351973,139.6259811,アオキショウガッコウ,神奈川区,02
地域防災拠点,被災した住民の避難生活の場所、情報受伝達、備蓄機能を備えた拠点です。,二谷小学校,神奈川県横浜市神奈川区平川町11-1,35.48040516,139.6287013,フタツヤショウガッコウ,神奈川区,02
地域防災拠点,被災した住民の避難生活の場所、情報受伝達、備蓄機能を備えた拠点です。,幸ケ谷小学校,神奈川県横浜市神奈川区幸ケ谷1-1,35.47157266,139.6308464,コウガヤショウガッコウ,神奈川区,02
地域防災拠点,被災した住民の避難生活の場所、情報受伝達、備蓄機能を備えた拠点です。,浦島小学校,神奈川県横浜市神奈川区浦島丘16,35.48416099,139.636977,ウラシマショウガッコウ,神奈川区,02
地域防災拠点,被災した住民の避難生活の場所、情報受伝達、備蓄機能を備えた拠点です。,子安小学校,神奈川県横浜市神奈川区新子安一丁目24-1,35.48832367,139.65289,コヤスショウガッコウ,神奈川区,02
地域防災拠点,被災した住民の避難生活の場所、情報受伝達、備蓄機能を備えた拠点です。,白幡小学校,神奈川県横浜市神奈川区白幡上町11-1,35.49164173,139.6320119,シラハタショウガッコウ,神奈川区,02
地域防災拠点,被災した住民の避難生活の場所、情報受伝達、備蓄機能を備えた拠点です。,神橋小学校,神奈川県横浜市神奈川区六角橋二丁目34-19,35.4897724,139.6210148,カミハシショウガッコウ,神奈川区,02
地域防災拠点,被災した住民の避難生活の場所、情報受伝達、備蓄機能を備えた拠点です。,池上小学校,神奈川県横浜市神奈川区菅田町1393,35.49643064,139.586101,イケウエショウガッコウ,神奈川区,02
地域防災拠点,被災した住民の避難生活の場所、情報受伝達、備蓄機能を備えた拠点です。,西寺尾小学校,神奈川県横浜市神奈川区西寺尾二丁目5-1,35.49750991,139.6454061,ニシテラオショウガッコウ,神奈川区,02
地域防災拠点,被災した住民の避難生活の場所、情報受伝達、備蓄機能を備えた拠点です。,西寺尾第二小学校,神奈川県横浜市神奈川区西寺尾二丁目15-1,35.49923319,139.6469272,ニシテラオダイニショウガッコウ,神奈川区,02
地域防災拠点,被災した住民の避難生活の場所、情報受伝達、備蓄機能を備えた拠点です。,大口台小学校,神奈川県横浜市神奈川区大口仲町460,35.49575931,139.6377354,オオグチダイショウガッコウ,神奈川区,02
地域防災拠点,被災した住民の避難生活の場所、情報受伝達、備蓄機能を備えた拠点です。,斎藤分小学校,神奈川県横浜市神奈川区斎藤分町34-1,35.48217772,139.6233438,サイトウブンショウガッコウ,神奈川区,02
地域防災拠点,被災した住民の避難生活の場所、情報受伝達、備蓄機能を備えた拠点です。,神奈川小学校,神奈川県横浜市神奈川区東神奈川二丁目35-1,35.4776585,139.6359493,カナガワショウガッコウ,神奈川区,02
地域防災拠点,被災した住民の避難生活の場所、情報受伝達、備蓄機能を備えた拠点です。,神大寺小学校,神奈川県横浜市神奈川区神大寺三丁目34-1,35.48769413,139.6091407,カンダイジショウガッコウ,神奈川区,02
地域防災拠点,被災した住民の避難生活の場所、情報受伝達、備蓄機能を備えた拠点です。,中丸小学校,神奈川県横浜市神奈川区神大寺三丁目17-1,35.48198042,139.6029046,ナカマルショウガッコウ,神奈川区,02
地域防災拠点,被災した住民の避難生活の場所、情報受伝達、備蓄機能を備えた拠点です。,羽沢小学校,神奈川県横浜市神奈川区羽沢町935,35.48837266,139.5873953,ハザワショウガッコウ,神奈川区,02
地域防災拠点,被災した住民の避難生活の場所、情報受伝達、備蓄機能を備えた拠点です。,菅田小学校,神奈川県横浜市神奈川区菅田町674,35.49633885,139.5778592,スゲタショウガッコウ,神奈川区,02
地域防災拠点,被災した住民の避難生活の場所、情報受伝達、備蓄機能を備えた拠点です。,南神大寺小学校,神奈川県横浜市神奈川区神大寺二丁目9-16,35.48519816,139.6120664,ミナミカンダイジショウガッコウ,神奈川区,02
地域防災拠点,被災した住民の避難生活の場所、情報受伝達、備蓄機能を備えた拠点です。,栗田谷中学校,神奈川県横浜市神奈川区栗田谷3-1,35.47737381,139.6243639,クリタヤチュウガッコウ,神奈川区,02
地域防災拠点,被災した住民の避難生活の場所、情報受伝達、備蓄機能を備えた拠点です。,浦島丘中学校,神奈川県横浜市神奈川区白幡東町27-1,35.48623775,139.6411806,ウラシマオカチュウガッコウ,神奈川区,02
地域防災拠点,被災した住民の避難生活の場所、情報受伝達、備蓄機能を備えた拠点です。,錦台中学校,神奈川県横浜市神奈川区西寺尾三丁目10-1,35.49641709,139.6508657,ニシキダイチュウガッコウ,神奈川区,02
地域防災拠点,被災した住民の避難生活の場所、情報受伝達、備蓄機能を備えた拠点です。,東小学校,神奈川県横浜市西区東ケ丘59,35.44344954,139.6239859,ヒガシショウガッコウ,西区,03
地域防災拠点,被災した住民の避難生活の場所、情報受伝達、備蓄機能を備えた拠点です。,稲荷台小学校,神奈川県横浜市西区藤棚町2丁目220,35.449122,139.61232,イナリダイショウガッコウ,西区,03
地域防災拠点,被災した住民の避難生活の場所、情報受伝達、備蓄機能を備えた拠点です。,西前小学校,神奈川県横浜市西区中央二丁目27-7,35.45365358,139.6154953,ニシマエショウガッコウ,西区,03
地域防災拠点,被災した住民の避難生活の場所、情報受伝達、備蓄機能を備えた拠点です。,平沼小学校,神奈川県横浜市西区平沼二丁目11-36,35.45749416,139.6155449,ヒラヌマショウガッコウ,西区,03
地域防災拠点,被災した住民の避難生活の場所、情報受伝達、備蓄機能を備えた拠点です。,宮谷小学校,神奈川県横浜市西区宮ケ谷6-7,35.46645575,139.6089138,ミヤガヤショウガッコウ,西区,03
地域防災拠点,被災した住民の避難生活の場所、情報受伝達、備蓄機能を備えた拠点です。,戸部小学校,神奈川県横浜市西区伊勢町2丁目115,35.45297029,139.6217915,トベショウガッコウ,西区,03
地域防災拠点,被災した住民の避難生活の場所、情報受伝達、備蓄機能を備えた拠点です。,一本松小学校,神奈川県横浜市西区西戸部町1丁目115,35.44689116,139.6190347,イッポンマツショウガッコウ,西区,03
地域防災拠点,被災した住民の避難生活の場所、情報受伝達、備蓄機能を備えた拠点です。,浅間台小学校,神奈川県横浜市西区浅間町3丁目237,35.46175721,139.6059119,センゲンダイショウガッコウ,西区,03
地域防災拠点,被災した住民の避難生活の場所、情報受伝達、備蓄機能を備えた拠点です。,岡野中学校,神奈川県横浜市西区岡野二丁目14-1,35.46182449,139.6117355,オカノチュウガッコウ,西区,03
地域防災拠点,被災した住民の避難生活の場所、情報受伝達、備蓄機能を備えた拠点です。,西中学校,神奈川県横浜市西区西戸部町3丁目286,35.45214874,139.6184975,ニシチュウガッコウ,西区,03
地域防災拠点,被災した住民の避難生活の場所、情報受伝達、備蓄機能を備えた拠点です。,老松中学校,神奈川県横浜市西区老松町27,35.447972,139.6244036,オイマツチュウガッコウ,西区,03
地域防災拠点,被災した住民の避難生活の場所、情報受伝達、備蓄機能を備えた拠点です。,軽井沢中学校,神奈川県横浜市西区北軽井沢24,35.46897079,139.6094111,カルイザワチュウガッコウ,西区,03
地域防災拠点,被災した住民の避難生活の場所、情報受伝達、備蓄機能を備えた拠点です。,本町小学校,神奈川県横浜市中区花咲町3丁目86,35.45061431,139.6285715,ホンチョウショウガッコウ,中区,04
地域防災拠点,被災した住民の避難生活の場所、情報受伝達、備蓄機能を備えた拠点です。,山元小学校,神奈川県横浜市中区山元町3丁目152,35.42780801,139.6381045,ヤマモトショウガッコウ,中区,04
地域防災拠点,被災した住民の避難生活の場所、情報受伝達、備蓄機能を備えた拠点です。,元街小学校,神奈川県横浜市中区山手町36,35.43620779,139.6489516,モトマチショウガッコウ,中区,04
地域防災拠点,被災した住民の避難生活の場所、情報受伝達、備蓄機能を備えた拠点です。,北方小学校,神奈川県横浜市中区諏訪町29,35.43612522,139.6536771,キタガタショウガッコウ,中区,04
地域防災拠点,被災した住民の避難生活の場所、情報受伝達、備蓄機能を備えた拠点です。,大鳥小学校,神奈川県横浜市中区本牧町1丁目251,35.42723406,139.6566611,オオトリショウガッコウ,中区,04
地域防災拠点,被災した住民の避難生活の場所、情報受伝達、備蓄機能を備えた拠点です。,間門小学校,神奈川県横浜市中区本牧間門29-1,35.41771324,139.6552659,マカドショウガッコウ,中区,04
地域防災拠点,被災した住民の避難生活の場所、情報受伝達、備蓄機能を備えた拠点です。,立野小学校,神奈川県横浜市中区立野76,35.42712486,139.6450846,タテノショウガッコウ,中区,04
地域防災拠点,被災した住民の避難生活の場所、情報受伝達、備蓄機能を備えた拠点です。,本牧南小学校,神奈川県横浜市中区本牧元町44-1,35.41630108,139.6685048,ホンモクミナミショウガッコウ,中区,04
地域防災拠点,被災した住民の避難生活の場所、情報受伝達、備蓄機能を備えた拠点です。,本牧小学校,神奈川県横浜市中区本牧和田5-1,35.42453268,139.6622371,ホンモクショウガッコウ,中区,04
地域防災拠点,被災した住民の避難生活の場所、情報受伝達、備蓄機能を備えた拠点です。,横浜吉田中学校,神奈川県横浜市中区羽衣町3丁目84,35.44256002,139.6330207,ヨコハマヨシダチュウガッコウ,中区,04
地域防災拠点,被災した住民の避難生活の場所、情報受伝達、備蓄機能を備えた拠点です。,港中学校,神奈川県横浜市中区山下町241,35.4412565,139.6430811,ミナトチュウガッコウ,中区,04
地域防災拠点,被災した住民の避難生活の場所、情報受伝達、備蓄機能を備えた拠点です。,仲尾台中学校,神奈川県横浜市中区仲尾台23,35.42575487,139.6449876,ナカオダイチュウガッコウ,中区,04
地域防災拠点,被災した住民の避難生活の場所、情報受伝達、備蓄機能を備えた拠点です。,みなと総合高等学校,神奈川県横浜市中区山下町231,35.44168493,139.6422965,ミナトソウゴウコウトウガッコウ,中区,04
地域防災拠点,被災した住民の避難生活の場所、情報受伝達、備蓄機能を備えた拠点です。,南吉田小学校,神奈川県横浜市南区高根町2丁目14,35.43643548,139.6266216,ミナミヨシダショウガッコウ,南区,05
地域防災拠点,被災した住民の避難生活の場所、情報受伝達、備蓄機能を備えた拠点です。,石川小学校,神奈川県横浜市南区中村町1丁目66,35.43409613,139.6356901,イシカワショウガッコウ,南区,05
地域防災拠点,被災した住民の避難生活の場所、情報受伝達、備蓄機能を備えた拠点です。,中村小学校,神奈川県横浜市南区中村町4丁目269-1,35.43270029,139.626015,ナカムラショウガッコウ,南区,05
地域防災拠点,被災した住民の避難生活の場所、情報受伝達、備蓄機能を備えた拠点です。,日枝小学校,神奈川県横浜市南区山王町5丁目31,35.43541872,139.6166916,ヒエショウガッコウ,南区,05
地域防災拠点,被災した住民の避難生活の場所、情報受伝達、備蓄機能を備えた拠点です。,蒔田小学校,神奈川県横浜市南区蒔田町1020,35.42568769,139.6131654,マイタショウガッコウ,南区,05
地域防災拠点,被災した住民の避難生活の場所、情報受伝達、備蓄機能を備えた拠点です。,大岡小学校,神奈川県横浜市南区大橋町3丁目49,35.42588602,139.6009023,オオオカショウガッコウ,南区,05
地域防災拠点,被災した住民の避難生活の場所、情報受伝達、備蓄機能を備えた拠点です。,井土ケ谷小学校,神奈川県横浜市南区井土ケ谷上町2-1,35.43294346,139.5999055,イドガヤショウガッコウ,南区,05
地域防災拠点,被災した住民の避難生活の場所、情報受伝達、備蓄機能を備えた拠点です。,永田小学校,神奈川県横浜市南区永田北二丁目6-12,35.43544372,139.591777,ナガタショウガッコウ,南区,05
地域防災拠点,被災した住民の避難生活の場所、情報受伝達、備蓄機能を備えた拠点です。,南太田小学校,神奈川県横浜市南区南太田一丁目17-1,35.43527497,139.6114278,ミナミオオタショウガッコウ,南区,05
地域防災拠点,被災した住民の避難生活の場所、情報受伝達、備蓄機能を備えた拠点です。,太田小学校,神奈川県横浜市南区三春台42,35.44088129,139.6173433,オオタショウガッコウ,南区,05
地域防災拠点,被災した住民の避難生活の場所、情報受伝達、備蓄機能を備えた拠点です。,南小学校,神奈川県横浜市南区中里一丁目6-16,35.41892519,139.5990558,ミナミショウガッコウ,南区,05
地域防災拠点,被災した住民の避難生活の場所、情報受伝達、備蓄機能を備えた拠点です。,六つ川小学校,神奈川県横浜市南区六ツ川三丁目4-12,35.4288321,139.5839226,ムツカワショウガッコウ,南区,05
地域防災拠点,被災した住民の避難生活の場所、情報受伝達、備蓄機能を備えた拠点です。,藤の木小学校,神奈川県横浜市南区大岡四丁目10-1,35.41229915,139.6049033,フジノキショウガッコウ,南区,05
地域防災拠点,被災した住民の避難生活の場所、情報受伝達、備蓄機能を備えた拠点です。,永田台小学校,神奈川県横浜市南区永田みなみ台6-1,35.43274406,139.5890777,ナガタダイショウガッコウ,南区,05
地域防災拠点,被災した住民の避難生活の場所、情報受伝達、備蓄機能を備えた拠点です。,六つ川台小学校,神奈川県横浜市南区六ツ川三丁目65-9,35.42895542,139.580306,ムツカワダイショウガッコウ,南区,05
地域防災拠点,被災した住民の避難生活の場所、情報受伝達、備蓄機能を備えた拠点です。,別所小学校,神奈川県横浜市南区別所六丁目3-1,35.4172759,139.5820876,ベッショショウガッコウ,南区,05
地域防災拠点,被災した住民の避難生活の場所、情報受伝達、備蓄機能を備えた拠点です。,六つ川西小学校,神奈川県横浜市南区六ツ川二丁目156-1,35.42479659,139.5778148,ムツカワニシショウガッコウ,南区,05
地域防災拠点,被災した住民の避難生活の場所、情報受伝達、備蓄機能を備えた拠点です。,平楽中学校,神奈川県横浜市南区平楽1,35.43126797,139.6335758,ヘイラクチュウガッコウ,南区,05
地域防災拠点,被災した住民の避難生活の場所、情報受伝達、備蓄機能を備えた拠点です。,共進中学校,神奈川県横浜市南区東蒔田町1-5,35.432919,139.6167665,キョウシンチュウガッコウ,南区,05
地域防災拠点,被災した住民の避難生活の場所、情報受伝達、備蓄機能を備えた拠点です。,南中学校,神奈川県横浜市南区六ツ川一丁目14,35.42673026,139.5969774,ミナミチュウガッコウ,南区,05
地域防災拠点,被災した住民の避難生活の場所、情報受伝達、備蓄機能を備えた拠点です。,蒔田中学校,神奈川県横浜市南区花之木町2-45,35.432152,139.6098066,マイタチュウガッコウ,南区,05
地域防災拠点,被災した住民の避難生活の場所、情報受伝達、備蓄機能を備えた拠点です。,六ツ川中学校,神奈川県横浜市南区六ツ川三丁目81-11,35.42914973,139.578633,ムツカワチュウガッコウ,南区,05
地域防災拠点,被災した住民の避難生活の場所、情報受伝達、備蓄機能を備えた拠点です。,南が丘中学校,神奈川県横浜市南区別所三丁目6-1,35.41369687,139.5907955,ミナミガオカチュウガッコウ,南区,05
地域防災拠点,被災した住民の避難生活の場所、情報受伝達、備蓄機能を備えた拠点です。,永田中学校,神奈川県横浜市南区永田みなみ台7-1,35.43379101,139.5875851,ナガタチュウガッコウ,南区,05
地域防災拠点,被災した住民の避難生活の場所、情報受伝達、備蓄機能を備えた拠点です。,藤の木中学校,神奈川県横浜市南区大岡四丁目44-1,35.41080248,139.6062246,フジノキチュウガッコウ,南区,05
地域防災拠点,被災した住民の避難生活の場所、情報受伝達、備蓄機能を備えた拠点です。,日野小学校,神奈川県横浜市港南区日野七丁目11-1,35.38731951,139.5798662,ヒノショウガッコウ,港南区,06
地域防災拠点,被災した住民の避難生活の場所、情報受伝達、備蓄機能を備えた拠点です。,永野小学校,神奈川県横浜市港南区上永谷二丁目21-10,35.40561918,139.5703279,ナガノショウガッコウ,港南区,06
地域防災拠点,被災した住民の避難生活の場所、情報受伝達、備蓄機能を備えた拠点です。,日下小学校,神奈川県横浜市港南区笹下三丁目9-1,35.39042558,139.6016241,ヒシタショウガッコウ,港南区,06
地域防災拠点,被災した住民の避難生活の場所、情報受伝達、備蓄機能を備えた拠点です。,桜岡小学校,神奈川県横浜市港南区大久保一丁目6-43,35.41212137,139.593563,サクラオカショウガッコウ,港南区,06
地域防災拠点,被災した住民の避難生活の場所、情報受伝達、備蓄機能を備えた拠点です。,南台小学校,神奈川県横浜市港南区港南五丁目6-1,35.39735804,139.5921585,ミナミダイショウガッコウ,港南区,06
地域防災拠点,被災した住民の避難生活の場所、情報受伝達、備蓄機能を備えた拠点です。,芹が谷小学校,神奈川県横浜市港南区芹が谷三丁目32-1,35.41521564,139.5738279,セリガヤショウガッコウ,港南区,06
地域防災拠点,被災した住民の避難生活の場所、情報受伝達、備蓄機能を備えた拠点です。,吉原小学校,神奈川県横浜市港南区日野二丁目20-40,35.39719111,139.5833274,ヨシハラショウガッコウ,港南区,06
地域防災拠点,被災した住民の避難生活の場所、情報受伝達、備蓄機能を備えた拠点です。,下永谷小学校,神奈川県横浜市港南区東永谷一丁目36-1,35.40847192,139.5815084,シモナガヤショウガッコウ,港南区,06
地域防災拠点,被災した住民の避難生活の場所、情報受伝達、備蓄機能を備えた拠点です。,上大岡小学校,神奈川県横浜市港南区上大岡東三丁目11-1,35.40435206,139.6042387,カミオオオカショウガッコウ,港南区,06
地域防災拠点,被災した住民の避難生活の場所、情報受伝達、備蓄機能を備えた拠点です。,芹が谷南小学校,神奈川県横浜市港南区芹が谷四丁目22-1,35.41254032,139.5712171,セリガヤミナミショウガッコウ,港南区,06
地域防災拠点,被災した住民の避難生活の場所、情報受伝達、備蓄機能を備えた拠点です。,日限山小学校,神奈川県横浜市港南区日限山二丁目16-1,35.39381927,139.5598117,ヒギリヤマショウガッコウ,港南区,06
地域防災拠点,被災した住民の避難生活の場所、情報受伝達、備蓄機能を備えた拠点です。,港南台第一小学校,神奈川県横浜市港南区港南台六丁目7-1,35.370459,139.5873199,コウナンダイダイイチショウガッコウ,港南区,06
地域防災拠点,被災した住民の避難生活の場所、情報受伝達、備蓄機能を備えた拠点です。,日野南小学校,神奈川県横浜市港南区日野南六丁目35-1,35.37484775,139.561976,ヒノミナミショウガッコウ,港南区,06
地域防災拠点,被災した住民の避難生活の場所、情報受伝達、備蓄機能を備えた拠点です。,下野庭小学校,神奈川県横浜市港南区野庭町602,35.39332798,139.5713656,シモノバショウガッコウ,港南区,06
地域防災拠点,被災した住民の避難生活の場所、情報受伝達、備蓄機能を備えた拠点です。,相武山小学校,神奈川県横浜市港南区上永谷一丁目7-5,35.40236095,139.5807266,ソウブヤマショウガッコウ,港南区,06
地域防災拠点,被災した住民の避難生活の場所、情報受伝達、備蓄機能を備えた拠点です。,永谷小学校,神奈川県横浜市港南区下永谷五丁目48-15,35.41172653,139.5592782,ナガヤショウガッコウ,港南区,06
地域防災拠点,被災した住民の避難生活の場所、情報受伝達、備蓄機能を備えた拠点です。,港南台第二小学校,神奈川県横浜市港南区港南台五丁目4-1,35.37203375,139.5789913,コウナンダイダイニショウガッコウ,港南区,06
地域防災拠点,被災した住民の避難生活の場所、情報受伝達、備蓄機能を備えた拠点です。,港南台第三小学校,神奈川県横浜市港南区港南台二丁目14-1,35.37904314,139.5826517,コウナンダイダイサンショウガッコウ,港南区,06
地域防災拠点,被災した住民の避難生活の場所、情報受伝達、備蓄機能を備えた拠点です。,丸山台小学校,神奈川県横浜市港南区丸山台三丁目8-1,35.40105048,139.5685492,マルヤマダイショウガッコウ,港南区,06
地域防災拠点,被災した住民の避難生活の場所、情報受伝達、備蓄機能を備えた拠点です。,野庭すずかけ小学校,神奈川県横浜市港南区野庭町346-2,35.38785181,139.5749149,ノバスズカケショウガッコウ,港南区,06
地域防災拠点,被災した住民の避難生活の場所、情報受伝達、備蓄機能を備えた拠点です。,小坪小学校,神奈川県横浜市港南区港南台四丁目11-1,35.37598576,139.5740439,コツボショウガッコウ,港南区,06
地域防災拠点,被災した住民の避難生活の場所、情報受伝達、備蓄機能を備えた拠点です。,上永谷中学校,神奈川県横浜市港南区上永谷四丁目12-14,35.40983155,139.5691756,カミナガヤチュウガッコウ,港南区,06
地域防災拠点,被災した住民の避難生活の場所、情報受伝達、備蓄機能を備えた拠点です。,港南中学校,神奈川県横浜市港南区港南中央通6-1,35.40177062,139.5909625,コウナンチュウガッコウ,港南区,06
地域防災拠点,被災した住民の避難生活の場所、情報受伝達、備蓄機能を備えた拠点です。,笹下中学校,神奈川県横浜市港南区港南五丁目8-1,35.39675867,139.5931215,ササゲチュウガッコウ,港南区,06
地域防災拠点,被災した住民の避難生活の場所、情報受伝達、備蓄機能を備えた拠点です。,野庭中学校,神奈川県横浜市港南区野庭町630,35.38662178,139.570511,ノバチュウガッコウ,港南区,06
地域防災拠点,被災した住民の避難生活の場所、情報受伝達、備蓄機能を備えた拠点です。,港南台第一中学校,神奈川県横浜市港南区港南台六丁目6-1,35.37146891,139.5865793,コウナンダイダイイチチュウガッコウ,港南区,06
地域防災拠点,被災した住民の避難生活の場所、情報受伝達、備蓄機能を備えた拠点です。,芹が谷中学校,神奈川県横浜市港南区芹が谷二丁目7-1,35.4173177,139.5744821,セリガヤチュウガッコウ,港南区,06
地域防災拠点,被災した住民の避難生活の場所、情報受伝達、備蓄機能を備えた拠点です。,日限山中学校,神奈川県横浜市港南区日限山四丁目33-1,35.38660265,139.5569243,ヒギリヤマチュウガッコウ,港南区,06
地域防災拠点,被災した住民の避難生活の場所、情報受伝達、備蓄機能を備えた拠点です。,日野南中学校,神奈川県横浜市港南区港南台四丁目37-1,35.37544993,139.5685223,ヒノミナミチュウガッコウ,港南区,06
地域防災拠点,被災した住民の避難生活の場所、情報受伝達、備蓄機能を備えた拠点です。,丸山台中学校,神奈川県横浜市港南区丸山台四丁目1-1,35.39506558,139.5647954,マルヤマダイチュウガッコウ,港南区,06
地域防災拠点,被災した住民の避難生活の場所、情報受伝達、備蓄機能を備えた拠点です。,東永谷中学校,神奈川県横浜市港南区東永谷二丁目14-7,35.40653798,139.5784978,ヒガシナガヤチュウガッコウ,港南区,06
地域防災拠点,被災した住民の避難生活の場所、情報受伝達、備蓄機能を備えた拠点です。,富士見台小学校,神奈川県横浜市保土ケ谷区岩井町307,35.44272982,139.601837,フジミダイショウガッコウ,保土ケ谷区,07
地域防災拠点,被災した住民の避難生活の場所、情報受伝達、備蓄機能を備えた拠点です。,保土ケ谷小学校,神奈川県横浜市保土ケ谷区神戸町129-4,35.4548278,139.5947847,ホドガヤショウガッコウ,保土ケ谷区,07
地域防災拠点,被災した住民の避難生活の場所、情報受伝達、備蓄機能を備えた拠点です。,帷子小学校,神奈川県横浜市保土ケ谷区川辺町65-1,35.45652646,139.5977362,カタビラショウガッコウ,保土ケ谷区,07
地域防災拠点,被災した住民の避難生活の場所、情報受伝達、備蓄機能を備えた拠点です。,岩崎小学校,神奈川県横浜市保土ケ谷区岩崎町22-1,35.44666612,139.5867118,イワサキショウガッコウ,保土ケ谷区,07
地域防災拠点,被災した住民の避難生活の場所、情報受伝達、備蓄機能を備えた拠点です。,初音が丘小学校,神奈川県横浜市保土ケ谷区藤塚町1-1,35.44801812,139.5766758,ハツネガオカショウガッコウ,保土ケ谷区,07
地域防災拠点,被災した住民の避難生活の場所、情報受伝達、備蓄機能を備えた拠点です。,峯小学校,神奈川県横浜市保土ケ谷区峰岡町1丁目10,35.46133872,139.5991076,ミネショウガッコウ,保土ケ谷区,07
地域防災拠点,被災した住民の避難生活の場所、情報受伝達、備蓄機能を備えた拠点です。,星川小学校,神奈川県横浜市保土ケ谷区星川三丁目18-1,35.46124598,139.5894326,ホシカワショウガッコウ,保土ケ谷区,07
地域防災拠点,被災した住民の避難生活の場所、情報受伝達、備蓄機能を備えた拠点です。,仏向小学校,神奈川県横浜市保土ケ谷区仏向町845,35.46030322,139.5858029,ブッコウショウガッコウ,保土ケ谷区,07
地域防災拠点,被災した住民の避難生活の場所、情報受伝達、備蓄機能を備えた拠点です。,川島小学校,神奈川県横浜市保土ケ谷区川島町1162,35.47333047,139.5681633,カワシマショウガッコウ,保土ケ谷区,07
地域防災拠点,被災した住民の避難生活の場所、情報受伝達、備蓄機能を備えた拠点です。,上菅田小学校,神奈川県横浜市保土ケ谷区上菅田町134,35.48435371,139.5661591,カミスゲタショウガッコウ,保土ケ谷区,07
地域防災拠点,被災した住民の避難生活の場所、情報受伝達、備蓄機能を備えた拠点です。,今井小学校,神奈川県横浜市保土ケ谷区今井町981-1,35.44691725,139.5585224,イマイショウガッコウ,保土ケ谷区,07
地域防災拠点,被災した住民の避難生活の場所、情報受伝達、備蓄機能を備えた拠点です。,桜台小学校,神奈川県横浜市保土ケ谷区桜ケ丘一丁目13-1,35.45038817,139.5905756,サクラダイショウガッコウ,保土ケ谷区,07
地域防災拠点,被災した住民の避難生活の場所、情報受伝達、備蓄機能を備えた拠点です。,常盤台小学校,神奈川県横浜市保土ケ谷区釜台町22-1,35.46923945,139.5858315,トキワダイショウガッコウ,保土ケ谷区,07
地域防災拠点,被災した住民の避難生活の場所、情報受伝達、備蓄機能を備えた拠点です。,上星川小学校,神奈川県横浜市保土ケ谷区上星川二丁目51-1,35.47610727,139.5780808,カミホシカワショウガッコウ,保土ケ谷区,07
地域防災拠点,被災した住民の避難生活の場所、情報受伝達、備蓄機能を備えた拠点です。,笹山小学校,神奈川県横浜市保土ケ谷区上菅田町1422,35.49247346,139.5649436,ササヤマショウガッコウ,保土ケ谷区,07
地域防災拠点,被災した住民の避難生活の場所、情報受伝達、備蓄機能を備えた拠点です。,新井小学校,神奈川県横浜市保土ケ谷区上菅田町1574-1,35.49545495,139.5568055,アライショウガッコウ,保土ケ谷区,07
地域防災拠点,被災した住民の避難生活の場所、情報受伝達、備蓄機能を備えた拠点です。,旧・くぬぎ台小学校,神奈川県横浜市保土ケ谷区川島町1374-1,35.47240245,139.5595618,キュウ・クヌギダイショウガッコウ,保土ケ谷区,07
地域防災拠点,被災した住民の避難生活の場所、情報受伝達、備蓄機能を備えた拠点です。,坂本小学校,神奈川県横浜市保土ケ谷区坂本町6,35.46469244,139.5797932,サカモトショウガッコウ,保土ケ谷区,07
地域防災拠点,被災した住民の避難生活の場所、情報受伝達、備蓄機能を備えた拠点です。,藤塚小学校,神奈川県横浜市保土ケ谷区新桜ケ丘一丁目22-1,35.45139627,139.5630975,フジヅカショウガッコウ,保土ケ谷区,07
地域防災拠点,被災した住民の避難生活の場所、情報受伝達、備蓄機能を備えた拠点です。,瀬戸ケ谷小学校,神奈川県横浜市保土ケ谷区瀬戸ケ谷町243,35.44112479,139.5869559,セトガヤショウガッコウ,保土ケ谷区,07
地域防災拠点,被災した住民の避難生活の場所、情報受伝達、備蓄機能を備えた拠点です。,権太坂小学校,神奈川県横浜市保土ケ谷区権太坂二丁目4-1,35.44195085,139.5746471,コンタザカショウガッコウ,保土ケ谷区,07
地域防災拠点,被災した住民の避難生活の場所、情報受伝達、備蓄機能を備えた拠点です。,保土ケ谷中学校,神奈川県横浜市保土ケ谷区釜台町3-1,35.46649879,139.5842008,ホドガヤチュウガッコウ,保土ケ谷区,07
地域防災拠点,被災した住民の避難生活の場所、情報受伝達、備蓄機能を備えた拠点です。,宮田中学校,神奈川県横浜市保土ケ谷区宮田町1丁目100,35.46158119,139.6046542,ミヤタチュウガッコウ,保土ケ谷区,07
地域防災拠点,被災した住民の避難生活の場所、情報受伝達、備蓄機能を備えた拠点です。,西谷中学校,神奈川県横浜市保土ケ谷区川島町1208,35.47428273,139.5641366,ニシヤチュウガッコウ,保土ケ谷区,07
地域防災拠点,被災した住民の避難生活の場所、情報受伝達、備蓄機能を備えた拠点です。,橘中学校,神奈川県横浜市保土ケ谷区仏向町1167-2,35.45606563,139.576803,タチバナチュウガッコウ,保土ケ谷区,07
地域防災拠点,被災した住民の避難生活の場所、情報受伝達、備蓄機能を備えた拠点です。,新井中学校,神奈川県横浜市保土ケ谷区新井町43-7,35.48415516,139.5596685,アライチュウガッコウ,保土ケ谷区,07
地域防災拠点,被災した住民の避難生活の場所、情報受伝達、備蓄機能を備えた拠点です。,上白根中学校,神奈川県横浜市旭区上白根町868,35.49808609,139.5327634,カミシラネチュウガッコウ,旭区,08
地域防災拠点,被災した住民の避難生活の場所、情報受伝達、備蓄機能を備えた拠点です。,二俣川小学校,神奈川県横浜市旭区二俣川１丁目33,35.46426578,139.5293627,フタマタガワショウガッコウ,旭区,08
地域防災拠点,被災した住民の避難生活の場所、情報受伝達、備蓄機能を備えた拠点です。,市沢小学校,神奈川県横浜市旭区市沢町781,35.46166271,139.5590655,イチサワショウガッコウ,旭区,08
地域防災拠点,被災した住民の避難生活の場所、情報受伝達、備蓄機能を備えた拠点です。,白根小学校,神奈川県横浜市旭区中白根一丁目9-1,35.48754121,139.5442025,シラネショウガッコウ,旭区,08
地域防災拠点,被災した住民の避難生活の場所、情報受伝達、備蓄機能を備えた拠点です。,都岡小学校,神奈川県横浜市旭区都岡町4-8,35.48523831,139.5216566,ツオカショウガッコウ,旭区,08
地域防災拠点,被災した住民の避難生活の場所、情報受伝達、備蓄機能を備えた拠点です。,希望ケ丘小学校,神奈川県横浜市旭区中希望が丘124,35.45881115,139.5126125,キボウガオカショウガッコウ,旭区,08
地域防災拠点,被災した住民の避難生活の場所、情報受伝達、備蓄機能を備えた拠点です。,鶴ケ峯小学校,神奈川県横浜市旭区鶴ケ峰一丁目42,35.4717474,139.5519363,ツルガミネショウガッコウ,旭区,08
地域防災拠点,被災した住民の避難生活の場所、情報受伝達、備蓄機能を備えた拠点です。,本宿小学校,神奈川県横浜市旭区本宿町16,35.46890479,139.5444659,ホンジュクショウガッコウ,旭区,08
地域防災拠点,被災した住民の避難生活の場所、情報受伝達、備蓄機能を備えた拠点です。,万騎が原小学校,神奈川県横浜市旭区大池町66,35.4525109,139.5338395,マキガハラショウガッコウ,旭区,08
地域防災拠点,被災した住民の避難生活の場所、情報受伝達、備蓄機能を備えた拠点です。,今宿小学校,神奈川県横浜市旭区今宿東町829,35.48414191,139.5363493,イマジュクショウガッコウ,旭区,08
地域防災拠点,被災した住民の避難生活の場所、情報受伝達、備蓄機能を備えた拠点です。,東希望が丘小学校,神奈川県横浜市旭区東希望が丘155,35.46420874,139.5117192,ヒガシキボウガオカショウガッコウ,旭区,08
地域防災拠点,被災した住民の避難生活の場所、情報受伝達、備蓄機能を備えた拠点です。,上川井小学校,神奈川県横浜市旭区上川井町2913,35.49825655,139.5027646,カミカワイショウガッコウ,旭区,08
地域防災拠点,被災した住民の避難生活の場所、情報受伝達、備蓄機能を備えた拠点です。,さちが丘小学校,神奈川県横浜市旭区さちが丘110-1,35.45668575,139.5228264,サチガオカショウガッコウ,旭区,08
地域防災拠点,被災した住民の避難生活の場所、情報受伝達、備蓄機能を備えた拠点です。,旧・左近山第一小学校,神奈川県横浜市旭区左近山1997-2,35.46210992,139.5496641,キュウ・サコンヤマダイイチショウガッコウ,旭区,08
地域防災拠点,被災した住民の避難生活の場所、情報受伝達、備蓄機能を備えた拠点です。,笹野台小学校,神奈川県横浜市旭区笹野台四丁目48-1,35.47327719,139.5104301,ササノダイショウガッコウ,旭区,08
地域防災拠点,被災した住民の避難生活の場所、情報受伝達、備蓄機能を備えた拠点です。,中沢小学校,神奈川県横浜市旭区中沢三丁目25-1,35.47458032,139.522284,ナカザワショウガッコウ,旭区,08
地域防災拠点,被災した住民の避難生活の場所、情報受伝達、備蓄機能を備えた拠点です。,旧・左近山第二小学校,神奈川県横浜市旭区左近山1011,35.45688488,139.5563504,キュウ・サコンヤマダイニショウガッコウ,旭区,08
地域防災拠点,被災した住民の避難生活の場所、情報受伝達、備蓄機能を備えた拠点です。,四季の森小学校,神奈川県横浜市旭区上白根町901,35.49640763,139.5319528,シキノモリショウガッコウ,旭区,08
地域防災拠点,被災した住民の避難生活の場所、情報受伝達、備蓄機能を備えた拠点です。,不動丸小学校,神奈川県横浜市旭区白根三丁目33-1,35.48334411,139.5501854,フドウマルショウガッコウ,旭区,08
地域防災拠点,被災した住民の避難生活の場所、情報受伝達、備蓄機能を備えた拠点です。,川井小学校,神奈川県横浜市旭区川井宿町32-2,35.4937142,139.5206161,カワイショウガッコウ,旭区,08
地域防災拠点,被災した住民の避難生活の場所、情報受伝達、備蓄機能を備えた拠点です。,上白根小学校,神奈川県横浜市旭区上白根二丁目45-1,35.49532219,139.5394489,カミシラネショウガッコウ,旭区,08
地域防災拠点,被災した住民の避難生活の場所、情報受伝達、備蓄機能を備えた拠点です。,南本宿小学校,神奈川県横浜市旭区南本宿町79,35.45818528,139.5384292,ミナミホンジュクショウガッコウ,旭区,08
地域防災拠点,被災した住民の避難生活の場所、情報受伝達、備蓄機能を備えた拠点です。,左近山小学校,神奈川県横浜市旭区小高町55-2,35.46170036,139.5540552,サコンヤマショウガッコウ,旭区,08
地域防災拠点,被災した住民の避難生活の場所、情報受伝達、備蓄機能を備えた拠点です。,中尾小学校,神奈川県横浜市旭区中尾一丁目8-1,35.46564212,139.5227321,ナカオショウガッコウ,旭区,08
地域防災拠点,被災した住民の避難生活の場所、情報受伝達、備蓄機能を備えた拠点です。,善部小学校,神奈川県横浜市旭区善部町4-1,35.45113006,139.5165943,ゼンブショウガッコウ,旭区,08
地域防災拠点,被災した住民の避難生活の場所、情報受伝達、備蓄機能を備えた拠点です。,若葉台特別支援学校,神奈川県横浜市旭区若葉台二丁目1-1,35.5026828,139.5022165,ワカバダイトクベツシエンガッコウ,旭区,08
地域防災拠点,被災した住民の避難生活の場所、情報受伝達、備蓄機能を備えた拠点です。,今宿南小学校,神奈川県横浜市旭区今宿南町1879-2,35.47952302,139.5290421,イマジュクミナミショウガッコウ,旭区,08
地域防災拠点,被災した住民の避難生活の場所、情報受伝達、備蓄機能を備えた拠点です。,若葉台小学校,神奈川県横浜市旭区若葉台二丁目14-1,35.50824593,139.5007166,ワカバダイショウガッコウ,旭区,08
地域防災拠点,被災した住民の避難生活の場所、情報受伝達、備蓄機能を備えた拠点です。,旧・若葉台西中学校,神奈川県横浜市旭区若葉台四丁目34-1,35.50517893,139.4914856,キュウ・ワカバダイニシチュウガッコウ,旭区,08
地域防災拠点,被災した住民の避難生活の場所、情報受伝達、備蓄機能を備えた拠点です。,万騎が原中学校,神奈川県横浜市旭区万騎が原31,35.45766877,139.5361639,マキガハラチュウガッコウ,旭区,08
地域防災拠点,被災した住民の避難生活の場所、情報受伝達、備蓄機能を備えた拠点です。,鶴ケ峯中学校,神奈川県横浜市旭区鶴ケ峰本町三丁目28-1,35.48152742,139.5422123,ツルガミネチュウガッコウ,旭区,08
地域防災拠点,被災した住民の避難生活の場所、情報受伝達、備蓄機能を備えた拠点です。,旭中学校,神奈川県横浜市旭区今宿二丁目40-1,35.47380529,139.5177292,アサヒチュウガッコウ,旭区,08
地域防災拠点,被災した住民の避難生活の場所、情報受伝達、備蓄機能を備えた拠点です。,南希望が丘中学校,神奈川県横浜市旭区南希望が丘108-8,35.45694507,139.5098099,ミナミキボウガオカチュウガッコウ,旭区,08
地域防災拠点,被災した住民の避難生活の場所、情報受伝達、備蓄機能を備えた拠点です。,今宿中学校,神奈川県横浜市旭区今宿東町825,35.48512938,139.5365493,イマジュクチュウガッコウ,旭区,08
地域防災拠点,被災した住民の避難生活の場所、情報受伝達、備蓄機能を備えた拠点です。,本宿中学校,神奈川県横浜市旭区川島町1979,35.46444819,139.5478637,ホンジュクチュウガッコウ,旭区,08
地域防災拠点,被災した住民の避難生活の場所、情報受伝達、備蓄機能を備えた拠点です。,旭北中学校,神奈川県横浜市旭区上白根二丁目47-1,35.49520026,139.5371227,アサヒキタチュウガッコウ,旭区,08
地域防災拠点,被災した住民の避難生活の場所、情報受伝達、備蓄機能を備えた拠点です。,滝頭小学校,神奈川県横浜市磯子区丸山二丁目25-1,35.42178763,139.621121,タキガシラショウガッコウ,磯子区,09
地域防災拠点,被災した住民の避難生活の場所、情報受伝達、備蓄機能を備えた拠点です。,岡村小学校,神奈川県横浜市磯子区岡村四丁目7-1,35.42106671,139.6116034,オカムラショウガッコウ,磯子区,09
地域防災拠点,被災した住民の避難生活の場所、情報受伝達、備蓄機能を備えた拠点です。,磯子小学校,神奈川県横浜市磯子区久木町11-1,35.41444351,139.6222488,イソゴショウガッコウ,磯子区,09
地域防災拠点,被災した住民の避難生活の場所、情報受伝達、備蓄機能を備えた拠点です。,浜小学校,神奈川県横浜市磯子区磯子台23-1,35.40562456,139.6135212,ハマショウガッコウ,磯子区,09
地域防災拠点,被災した住民の避難生活の場所、情報受伝達、備蓄機能を備えた拠点です。,杉田小学校,神奈川県横浜市磯子区杉田一丁目8-1,35.38523468,139.6168277,スギタショウガッコウ,磯子区,09
地域防災拠点,被災した住民の避難生活の場所、情報受伝達、備蓄機能を備えた拠点です。,根岸小学校,神奈川県横浜市磯子区西町2-46,35.41764734,139.6327351,ネギシショウガッコウ,磯子区,09
地域防災拠点,被災した住民の避難生活の場所、情報受伝達、備蓄機能を備えた拠点です。,屏風浦小学校,神奈川県横浜市磯子区森三丁目11-1,35.39121103,139.6137418,ビョウブガウラショウガッコウ,磯子区,09
地域防災拠点,被災した住民の避難生活の場所、情報受伝達、備蓄機能を備えた拠点です。,梅林小学校,神奈川県横浜市磯子区杉田五丁目13-1,35.37770819,139.6201679,バイリンショウガッコウ,磯子区,09
地域防災拠点,被災した住民の避難生活の場所、情報受伝達、備蓄機能を備えた拠点です。,汐見台小学校,神奈川県横浜市磯子区汐見台3丁目6,35.40056596,139.6068601,シオミダイショウガッコウ,磯子区,09
地域防災拠点,被災した住民の避難生活の場所、情報受伝達、備蓄機能を備えた拠点です。,洋光台第一小学校,神奈川県横浜市磯子区洋光台一丁目4-1,35.38415307,139.5958495,ヨウコウダイダイイチショウガッコウ,磯子区,09
地域防災拠点,被災した住民の避難生活の場所、情報受伝達、備蓄機能を備えた拠点です。,洋光台第二小学校,神奈川県横浜市磯子区洋光台四丁目15-1,35.37647983,139.6003858,ヨウコウダイダイニショウガッコウ,磯子区,09
地域防災拠点,被災した住民の避難生活の場所、情報受伝達、備蓄機能を備えた拠点です。,さわの里小学校,神奈川県横浜市磯子区上中里町548,35.36918049,139.6091617,サワノサトショウガッコウ,磯子区,09
地域防災拠点,被災した住民の避難生活の場所、情報受伝達、備蓄機能を備えた拠点です。,洋光台第三小学校,神奈川県横浜市磯子区洋光台二丁目4-1,35.3822678,139.5900026,ヨウコウダイダイサンショウガッコウ,磯子区,09
地域防災拠点,被災した住民の避難生活の場所、情報受伝達、備蓄機能を備えた拠点です。,洋光台第四小学校,神奈川県横浜市磯子区洋光台六丁目6-1,35.37293574,139.5972911,ヨウコウダイダイヨンショウガッコウ,磯子区,09
地域防災拠点,被災した住民の避難生活の場所、情報受伝達、備蓄機能を備えた拠点です。,森東小学校,神奈川県横浜市磯子区森一丁目4,35.39721718,139.6157813,モリヒガシショウガッコウ,磯子区,09
地域防災拠点,被災した住民の避難生活の場所、情報受伝達、備蓄機能を備えた拠点です。,山王台小学校,神奈川県横浜市磯子区磯子五丁目2-1,35.40796083,139.6144385,サンノウダイショウガッコウ,磯子区,09
地域防災拠点,被災した住民の避難生活の場所、情報受伝達、備蓄機能を備えた拠点です。,根岸中学校,神奈川県横浜市磯子区西町17-13,35.41494873,139.6316114,ネギシチュウガッコウ,磯子区,09
地域防災拠点,被災した住民の避難生活の場所、情報受伝達、備蓄機能を備えた拠点です。,浜中学校,神奈川県横浜市磯子区杉田三丁目30-11,35.37822165,139.6111926,ハマチュウガッコウ,磯子区,09
地域防災拠点,被災した住民の避難生活の場所、情報受伝達、備蓄機能を備えた拠点です。,岡村中学校,神奈川県横浜市磯子区岡村一丁目14-1,35.41652704,139.617592,オカムラチュウガッコウ,磯子区,09
地域防災拠点,被災した住民の避難生活の場所、情報受伝達、備蓄機能を備えた拠点です。,汐見台中学校,神奈川県横浜市磯子区汐見台1丁目2-1,35.40683529,139.6115839,シオミダイチュウガッコウ,磯子区,09
地域防災拠点,被災した住民の避難生活の場所、情報受伝達、備蓄機能を備えた拠点です。,森中学校,神奈川県横浜市磯子区森五丁目22-1,35.39279709,139.6048935,モリチュウガッコウ,磯子区,09
地域防災拠点,被災した住民の避難生活の場所、情報受伝達、備蓄機能を備えた拠点です。,富岡小学校,神奈川県横浜市金沢区富岡西七丁目13-1,35.36658011,139.6250764,トミオカショウガッコウ,金沢区,10
地域防災拠点,被災した住民の避難生活の場所、情報受伝達、備蓄機能を備えた拠点です。,金沢小学校,神奈川県横浜市金沢区町屋町26-26,35.33558394,139.6296431,カナザワショウガッコウ,金沢区,10
地域防災拠点,被災した住民の避難生活の場所、情報受伝達、備蓄機能を備えた拠点です。,八景小学校,神奈川県横浜市金沢区泥亀一丁目21-2,35.33861096,139.6220509,ハッケイショウガッコウ,金沢区,10
地域防災拠点,被災した住民の避難生活の場所、情報受伝達、備蓄機能を備えた拠点です。,文庫小学校,神奈川県横浜市金沢区寺前二丁目21-7,35.34001076,139.6310233,ブンコショウガッコウ,金沢区,10
地域防災拠点,被災した住民の避難生活の場所、情報受伝達、備蓄機能を備えた拠点です。,六浦小学校,神奈川県横浜市金沢区六浦三丁目11-1,35.32982985,139.612939,ムツウラショウガッコウ,金沢区,10
地域防災拠点,被災した住民の避難生活の場所、情報受伝達、備蓄機能を備えた拠点です。,釜利谷小学校,神奈川県横浜市金沢区釜利谷東六丁目37-1,35.34354658,139.6081607,カマリヤショウガッコウ,金沢区,10
地域防災拠点,被災した住民の避難生活の場所、情報受伝達、備蓄機能を備えた拠点です。,大道小学校,神奈川県横浜市金沢区大道二丁目3-1,35.3267611,139.6107042,ダイドウショウガッコウ,金沢区,10
地域防災拠点,被災した住民の避難生活の場所、情報受伝達、備蓄機能を備えた拠点です。,瀬ケ崎小学校,神奈川県横浜市金沢区六浦東三丁目2-1,35.3191252,139.6202397,セガサキショウガッコウ,金沢区,10
地域防災拠点,被災した住民の避難生活の場所、情報受伝達、備蓄機能を備えた拠点です。,西柴小学校,神奈川県横浜市金沢区西柴四丁目23-1,35.34756877,139.6331659,ニシシバショウガッコウ,金沢区,10
地域防災拠点,被災した住民の避難生活の場所、情報受伝達、備蓄機能を備えた拠点です。,西富岡小学校,神奈川県横浜市金沢区富岡西五丁目49-1,35.36191961,139.6140544,ニシトミオカショウガッコウ,金沢区,10
地域防災拠点,被災した住民の避難生活の場所、情報受伝達、備蓄機能を備えた拠点です。,朝比奈小学校,神奈川県横浜市金沢区東朝比奈二丁目53-1,35.32330431,139.5951742,アサヒナショウガッコウ,金沢区,10
地域防災拠点,被災した住民の避難生活の場所、情報受伝達、備蓄機能を備えた拠点です。,釜利谷西小学校,神奈川県横浜市金沢区釜利谷西四丁目19-1,35.34367125,139.5935848,カマリヤニシショウガッコウ,金沢区,10
地域防災拠点,被災した住民の避難生活の場所、情報受伝達、備蓄機能を備えた拠点です。,高舟台小学校,神奈川県横浜市金沢区高舟台一丁目35-1,35.33382003,139.6074398,タカフネダイショウガッコウ,金沢区,10
地域防災拠点,被災した住民の避難生活の場所、情報受伝達、備蓄機能を備えた拠点です。,並木第一小学校,神奈川県横浜市金沢区並木一丁目7-1,35.37302447,139.6392698,ナミキダイイチショウガッコウ,金沢区,10
地域防災拠点,被災した住民の避難生活の場所、情報受伝達、備蓄機能を備えた拠点です。,釜利谷東小学校,神奈川県横浜市金沢区釜利谷東二丁目12-1,35.34437519,139.6172535,カマリヤヒガシショウガッコウ,金沢区,10
地域防災拠点,被災した住民の避難生活の場所、情報受伝達、備蓄機能を備えた拠点です。,並木中央小学校,神奈川県横浜市金沢区並木一丁目25-1,35.36687034,139.6413828,ナミキチュウオウショウガッコウ,金沢区,10
地域防災拠点,被災した住民の避難生活の場所、情報受伝達、備蓄機能を備えた拠点です。,並木中学校,神奈川県横浜市金沢区並木三丁目4-1,35.35939018,139.6415561,ナミキチュウガッコウ,金沢区,10
地域防災拠点,被災した住民の避難生活の場所、情報受伝達、備蓄機能を備えた拠点です。,並木第四小学校,神奈川県横浜市金沢区並木三丁目10-1,35.35586089,139.6410348,ナミキダイヨンショウガッコウ,金沢区,10
地域防災拠点,被災した住民の避難生活の場所、情報受伝達、備蓄機能を備えた拠点です。,能見台小学校,神奈川県横浜市金沢区能見台三丁目32-1,35.35808389,139.6221125,ノウケンダイショウガッコウ,金沢区,10
地域防災拠点,被災した住民の避難生活の場所、情報受伝達、備蓄機能を備えた拠点です。,釜利谷南小学校,神奈川県横浜市金沢区釜利谷南四丁目12-1,35.3387728,139.6058663,カマリヤミナミショウガッコウ,金沢区,10
地域防災拠点,被災した住民の避難生活の場所、情報受伝達、備蓄機能を備えた拠点です。,小田小学校,神奈川県横浜市金沢区富岡西一丁目69-1,35.37212149,139.6203797,コダショウガッコウ,金沢区,10
地域防災拠点,被災した住民の避難生活の場所、情報受伝達、備蓄機能を備えた拠点です。,六浦南小学校,神奈川県横浜市金沢区六浦南三丁目22-1,35.31572915,139.6110629,ムツウラミナミショウガッコウ,金沢区,10
地域防災拠点,被災した住民の避難生活の場所、情報受伝達、備蓄機能を備えた拠点です。,能見台南小学校,神奈川県横浜市金沢区能見台六丁目3-1,35.35308047,139.6150947,ノウケンダイミナミショウガッコウ,金沢区,10
地域防災拠点,被災した住民の避難生活の場所、情報受伝達、備蓄機能を備えた拠点です。,西柴中学校,神奈川県横浜市金沢区西柴一丁目23-1,35.35266988,139.6289827,ニシシバチュウガッコウ,金沢区,10
地域防災拠点,被災した住民の避難生活の場所、情報受伝達、備蓄機能を備えた拠点です。,六浦中学校,神奈川県横浜市金沢区六浦一丁目24-4,35.32439797,139.6181437,ムツウラチュウガッコウ,金沢区,10
地域防災拠点,被災した住民の避難生活の場所、情報受伝達、備蓄機能を備えた拠点です。,大道中学校,神奈川県横浜市金沢区大道一丁目85-1,35.33079605,139.6011805,ダイドウチュウガッコウ,金沢区,10
地域防災拠点,被災した住民の避難生活の場所、情報受伝達、備蓄機能を備えた拠点です。,城郷小学校,神奈川県横浜市港北区鳥山町814,35.5049488,139.6026878,シロサトショウガッコウ,港北区,11
地域防災拠点,被災した住民の避難生活の場所、情報受伝達、備蓄機能を備えた拠点です。,大綱小学校,神奈川県横浜市港北区大倉山四丁目2-1,35.51867145,139.6259226,オオツナショウガッコウ,港北区,11
地域防災拠点,被災した住民の避難生活の場所、情報受伝達、備蓄機能を備えた拠点です。,大曽根小学校,神奈川県横浜市港北区大曽根二丁目31-1,35.53165941,139.6301138,オオソネショウガッコウ,港北区,11
地域防災拠点,被災した住民の避難生活の場所、情報受伝達、備蓄機能を備えた拠点です。,綱島小学校,神奈川県横浜市港北区綱島西三丁目11-1,35.53701308,139.6282687,ツナシマショウガッコウ,港北区,11
地域防災拠点,被災した住民の避難生活の場所、情報受伝達、備蓄機能を備えた拠点です。,日吉台小学校,神奈川県横浜市港北区日吉本町一丁目34-21,35.5526095,139.6433621,ヒヨシダイショウガッコウ,港北区,11
地域防災拠点,被災した住民の避難生活の場所、情報受伝達、備蓄機能を備えた拠点です。,港北小学校,神奈川県横浜市港北区菊名二丁目15-1,35.49986638,139.6352796,コウホクショウガッコウ,港北区,11
地域防災拠点,被災した住民の避難生活の場所、情報受伝達、備蓄機能を備えた拠点です。,菊名小学校,神奈川県横浜市港北区菊名五丁目18-1,35.51291453,139.634992,キクナショウガッコウ,港北区,11
地域防災拠点,被災した住民の避難生活の場所、情報受伝達、備蓄機能を備えた拠点です。,新田小学校,神奈川県横浜市港北区新吉田町3226-1,35.53345479,139.6098373,ニッタショウガッコウ,港北区,11
地域防災拠点,被災した住民の避難生活の場所、情報受伝達、備蓄機能を備えた拠点です。,高田中学校,神奈川県横浜市港北区高田町2439,35.55692842,139.617114,タカタショウガッコウ,港北区,11
地域防災拠点,被災した住民の避難生活の場所、情報受伝達、備蓄機能を備えた拠点です。,矢上小学校,神奈川県横浜市港北区日吉三丁目23-1,35.55399297,139.6576423,ヤガミショウガッコウ,港北区,11
地域防災拠点,被災した住民の避難生活の場所、情報受伝達、備蓄機能を備えた拠点です。,駒林小学校,神奈川県横浜市港北区日吉本町二丁目51-1,35.55252086,139.6351704,コマバヤシショウガッコウ,港北区,11
地域防災拠点,被災した住民の避難生活の場所、情報受伝達、備蓄機能を備えた拠点です。,篠原小学校,神奈川県横浜市港北区篠原東三丁目27-1,35.50302686,139.6268304,シノハラショウガッコウ,港北区,11
地域防災拠点,被災した住民の避難生活の場所、情報受伝達、備蓄機能を備えた拠点です。,下田小学校,神奈川県横浜市港北区下田町四丁目10-1,35.55762123,139.6302445,シモダショウガッコウ,港北区,11
地域防災拠点,被災した住民の避難生活の場所、情報受伝達、備蓄機能を備えた拠点です。,日吉南小学校,神奈川県横浜市港北区日吉本町四丁目2-6,35.54460502,139.6392534,ヒヨシミナミショウガッコウ,港北区,11
地域防災拠点,被災した住民の避難生活の場所、情報受伝達、備蓄機能を備えた拠点です。,篠原西小学校,神奈川県横浜市港北区篠原町1241-1,35.50162718,139.6149598,シノハラニシショウガッコウ,港北区,11
地域防災拠点,被災した住民の避難生活の場所、情報受伝達、備蓄機能を備えた拠点です。,新吉田小学校,神奈川県横浜市港北区新吉田東六丁目44-1,35.53824709,139.6177613,シンヨシダショウガッコウ,港北区,11
地域防災拠点,被災した住民の避難生活の場所、情報受伝達、備蓄機能を備えた拠点です。,綱島東小学校,神奈川県横浜市港北区綱島東三丁目1-30,35.53751499,139.640768,ツナシマヒガシショウガッコウ,港北区,11
地域防災拠点,被災した住民の避難生活の場所、情報受伝達、備蓄機能を備えた拠点です。,師岡小学校,神奈川県横浜市港北区師岡町986,35.52362014,139.6388785,モロオカショウガッコウ,港北区,11
地域防災拠点,被災した住民の避難生活の場所、情報受伝達、備蓄機能を備えた拠点です。,高田東小学校,神奈川県横浜市港北区高田東二丁目33-1,35.55230439,139.6251081,タカタヒガシショウガッコウ,港北区,11
地域防災拠点,被災した住民の避難生活の場所、情報受伝達、備蓄機能を備えた拠点です。,太尾小学校,神奈川県横浜市港北区大倉山七丁目34-1,35.5242593,139.6193724,フトオショウガッコウ,港北区,11
地域防災拠点,被災した住民の避難生活の場所、情報受伝達、備蓄機能を備えた拠点です。,新羽小学校,神奈川県横浜市港北区新羽町1452-2,35.52279436,139.6082607,ニッパショウガッコウ,港北区,11
地域防災拠点,被災した住民の避難生活の場所、情報受伝達、備蓄機能を備えた拠点です。,北綱島小学校,神奈川県横浜市港北区綱島西五丁目14-40,35.54403882,139.6305269,キタツナシマショウガッコウ,港北区,11
地域防災拠点,被災した住民の避難生活の場所、情報受伝達、備蓄機能を備えた拠点です。,新吉田第二小学校,神奈川県横浜市港北区新吉田町491-1,35.55003153,139.6127787,シンヨシダショウガッコウ,港北区,11
地域防災拠点,被災した住民の避難生活の場所、情報受伝達、備蓄機能を備えた拠点です。,大豆戸小学校,神奈川県横浜市港北区大豆戸町759,35.51592219,139.6221523,マメドショウガッコウ,港北区,11
地域防災拠点,被災した住民の避難生活の場所、情報受伝達、備蓄機能を備えた拠点です。,小机小学校,神奈川県横浜市港北区小机町1382-10,35.505328,139.5978162,コヅクエショウガッコウ,港北区,11
地域防災拠点,被災した住民の避難生活の場所、情報受伝達、備蓄機能を備えた拠点です。,城郷中学校,神奈川県横浜市港北区小机町325,35.50558205,139.587051,シロサトチュウガッコウ,港北区,11
地域防災拠点,被災した住民の避難生活の場所、情報受伝達、備蓄機能を備えた拠点です。,新田中学校,神奈川県横浜市港北区新吉田東五丁目25-1,35.54092393,139.622647,ニッタチュウガッコウ,港北区,11
地域防災拠点,被災した住民の避難生活の場所、情報受伝達、備蓄機能を備えた拠点です。,樽町中学校,神奈川県横浜市港北区樽町四丁目15-1,35.52839818,139.6425478,タルマチチュウガッコウ,港北区,11
地域防災拠点,被災した住民の避難生活の場所、情報受伝達、備蓄機能を備えた拠点です。,山下小学校,神奈川県横浜市緑区北八朔町1865-3,35.52505235,139.5380878,ヤマシタショウガッコウ,緑区,12
地域防災拠点,被災した住民の避難生活の場所、情報受伝達、備蓄機能を備えた拠点です。,鴨居小学校,神奈川県横浜市緑区鴨居四丁目7-15,35.5087097,139.5664205,カモイショウガッコウ,緑区,12
地域防災拠点,被災した住民の避難生活の場所、情報受伝達、備蓄機能を備えた拠点です。,新治小学校,神奈川県横浜市緑区新治町768,35.51784079,139.5200216,ニイハルショウガッコウ,緑区,12
地域防災拠点,被災した住民の避難生活の場所、情報受伝達、備蓄機能を備えた拠点です。,森の台小学校,神奈川県横浜市緑区森の台13-1,35.50874255,139.5357303,モリノダイショウガッコウ,緑区,12
地域防災拠点,被災した住民の避難生活の場所、情報受伝達、備蓄機能を備えた拠点です。,長津田小学校,神奈川県横浜市緑区長津田町2330,35.52999585,139.4911236,ナガツタショウガッコウ,緑区,12
地域防災拠点,被災した住民の避難生活の場所、情報受伝達、備蓄機能を備えた拠点です。,十日市場小学校,神奈川県横浜市緑区十日市場町1392-1,35.52040873,139.5147863,トオカイチバショウガッコウ,緑区,12
地域防災拠点,被災した住民の避難生活の場所、情報受伝達、備蓄機能を備えた拠点です。,三保小学校,神奈川県横浜市緑区三保町1867,35.51571582,139.5264755,ミホショウガッコウ,緑区,12
地域防災拠点,被災した住民の避難生活の場所、情報受伝達、備蓄機能を備えた拠点です。,竹山小学校,神奈川県横浜市緑区竹山三丁目1-16,35.49593246,139.5610304,タケヤマショウガッコウ,緑区,12
地域防災拠点,被災した住民の避難生活の場所、情報受伝達、備蓄機能を備えた拠点です。,長津田第二小学校,神奈川県横浜市緑区長津田町2469-3,35.53472394,139.4884314,ナガツタダイニショウガッコウ,緑区,12
地域防災拠点,被災した住民の避難生活の場所、情報受伝達、備蓄機能を備えた拠点です。,東本郷小学校,神奈川県横浜市緑区東本郷五丁目40-1,35.50504569,139.5818535,ヒガシホンゴウ,緑区,12
地域防災拠点,被災した住民の避難生活の場所、情報受伝達、備蓄機能を備えた拠点です。,上山小学校,神奈川県横浜市緑区上山二丁目5-1,35.50690492,139.5470603,カミヤマショウガッコウ,緑区,12
地域防災拠点,被災した住民の避難生活の場所、情報受伝達、備蓄機能を備えた拠点です。,緑小学校,神奈川県横浜市緑区鴨居五丁目19-1,35.50532926,139.5605813,ミドリショウガッコウ,緑区,12
地域防災拠点,被災した住民の避難生活の場所、情報受伝達、備蓄機能を備えた拠点です。,霧が丘小学校,神奈川県横浜市緑区霧が丘四丁目3,35.51215145,139.5072937,キリガオカショウガッコウ,緑区,12
地域防災拠点,被災した住民の避難生活の場所、情報受伝達、備蓄機能を備えた拠点です。,霧が丘複合施設「霧の里」,神奈川県横浜市緑区霧が丘三丁目23,35.51603128,139.5049527,キリノサト,緑区,12
地域防災拠点,被災した住民の避難生活の場所、情報受伝達、備蓄機能を備えた拠点です。,いぶき野小学校,神奈川県横浜市緑区いぶき野14-1,35.52607602,139.5020561,イブキノショウガッコウ,緑区,12
地域防災拠点,被災した住民の避難生活の場所、情報受伝達、備蓄機能を備えた拠点です。,中山小学校,神奈川県横浜市緑区中山町925,35.51056761,139.5482877,ナカヤマショウガッコウ,緑区,12
地域防災拠点,被災した住民の避難生活の場所、情報受伝達、備蓄機能を備えた拠点です。,山下みどり台小学校,神奈川県横浜市緑区北八朔町2031-3,35.53131046,139.5330873,ヤマシタミドリダイショウガイコウ,緑区,12
地域防災拠点,被災した住民の避難生活の場所、情報受伝達、備蓄機能を備えた拠点です。,田奈中学校,神奈川県横浜市緑区長津田二丁目24-1,35.53433111,139.498395,タナチュウガッコウ,緑区,12
地域防災拠点,被災した住民の避難生活の場所、情報受伝達、備蓄機能を備えた拠点です。,中山中学校,神奈川県横浜市緑区寺山町653-21,35.50393579,139.5398274,ナカヤマチュウガッコウ,緑区,12
地域防災拠点,被災した住民の避難生活の場所、情報受伝達、備蓄機能を備えた拠点です。,十日市場中学校,神奈川県横浜市緑区十日市場町1501-42,35.52226086,139.5125019,トオカイチバチュウガッコウ,緑区,12
地域防災拠点,被災した住民の避難生活の場所、情報受伝達、備蓄機能を備えた拠点です。,鴨居中学校,神奈川県横浜市緑区鴨居五丁目12-35,35.50739356,139.5612555,カモイチュウガッコウ,緑区,12
地域防災拠点,被災した住民の避難生活の場所、情報受伝達、備蓄機能を備えた拠点です。,東鴨居中学校,神奈川県横浜市緑区鴨居三丁目39-1,35.50465941,139.571396,ヒガシカモイチュウガッコウ,緑区,12
地域防災拠点,被災した住民の避難生活の場所、情報受伝達、備蓄機能を備えた拠点です。,鉄小学校,神奈川県横浜市青葉区鉄町427,35.56228921,139.5199329,クロガネショウガッコウ,青葉区,13
地域防災拠点,被災した住民の避難生活の場所、情報受伝達、備蓄機能を備えた拠点です。,谷本小学校,神奈川県横浜市青葉区藤が丘一丁目55-10,35.54309072,139.5353087,ヤモトショウガッコウ,青葉区,13
地域防災拠点,被災した住民の避難生活の場所、情報受伝達、備蓄機能を備えた拠点です。,田奈小学校,神奈川県横浜市青葉区田奈町51-13,35.53906814,139.5000888,タナショウガッコウ,青葉区,13
地域防災拠点,被災した住民の避難生活の場所、情報受伝達、備蓄機能を備えた拠点です。,山内小学校,神奈川県横浜市青葉区新石川一丁目20-1,35.56890453,139.5565445,ヤマウチショウガッコウ,青葉区,13
地域防災拠点,被災した住民の避難生活の場所、情報受伝達、備蓄機能を備えた拠点です。,奈良小学校,神奈川県横浜市青葉区奈良町1541-2,35.56260458,139.4810685,ナラショウガッコウ,青葉区,13
地域防災拠点,被災した住民の避難生活の場所、情報受伝達、備蓄機能を備えた拠点です。,つつじが丘小学校,神奈川県横浜市青葉区つつじが丘34,35.53570464,139.5199649,ツツジガオカショウガッコウ,青葉区,13
地域防災拠点,被災した住民の避難生活の場所、情報受伝達、備蓄機能を備えた拠点です。,美しが丘小学校,神奈川県横浜市青葉区美しが丘二丁目29,35.58424189,139.5569595,ウツクシガオカショウガッコウ,青葉区,13
地域防災拠点,被災した住民の避難生活の場所、情報受伝達、備蓄機能を備えた拠点です。,青葉台小学校,神奈川県横浜市青葉区桜台47,35.55118183,139.5101996,アオバダイショウガッコウ,青葉区,13
地域防災拠点,被災した住民の避難生活の場所、情報受伝達、備蓄機能を備えた拠点です。,榎が丘小学校,神奈川県横浜市青葉区榎が丘29,35.54215066,139.5097972,エノキガオカショウガッコウ,青葉区,13
地域防災拠点,被災した住民の避難生活の場所、情報受伝達、備蓄機能を備えた拠点です。,すすき野小学校,神奈川県横浜市青葉区すすき野三丁目4-1,35.57922481,139.5303419,ススキノショウガッコウ,青葉区,13
地域防災拠点,被災した住民の避難生活の場所、情報受伝達、備蓄機能を備えた拠点です。,もえぎ野小学校,神奈川県横浜市青葉区もえぎ野16,35.5482525,139.5234259,モエギノショウガッコウ,青葉区,13
地域防災拠点,被災した住民の避難生活の場所、情報受伝達、備蓄機能を備えた拠点です。,元石川小学校,神奈川県横浜市青葉区美しが丘四丁目31-1,35.58292559,139.5483628,モトイシカワショウガッコウ,青葉区,13
地域防災拠点,被災した住民の避難生活の場所、情報受伝達、備蓄機能を備えた拠点です。,藤が丘小学校,神奈川県横浜市青葉区藤が丘二丁目30-3,35.53912547,139.5259013,フジガオカショウガッコウ,青葉区,13
地域防災拠点,被災した住民の避難生活の場所、情報受伝達、備蓄機能を備えた拠点です。,みたけ台小学校,神奈川県横浜市青葉区みたけ台18,35.55633521,139.517278,ミタケダイショウガッコウ,青葉区,13
地域防災拠点,被災した住民の避難生活の場所、情報受伝達、備蓄機能を備えた拠点です。,美しが丘東小学校,神奈川県横浜市青葉区美しが丘二丁目25,35.58238742,139.5599318,ウツクシガオカヒガシショウガッコウ,青葉区,13
地域防災拠点,被災した住民の避難生活の場所、情報受伝達、備蓄機能を備えた拠点です。,市ケ尾小学校,神奈川県横浜市青葉区市ケ尾町1632-1,35.55599758,139.5400317,イチガオショウガッコウ,青葉区,13
地域防災拠点,被災した住民の避難生活の場所、情報受伝達、備蓄機能を備えた拠点です。,あざみ野第一小学校,神奈川県横浜市青葉区あざみ野四丁目6-1,35.57170271,139.5425813,アザミノダイイチショウガッコウ,青葉区,13
地域防災拠点,被災した住民の避難生活の場所、情報受伝達、備蓄機能を備えた拠点です。,嶮山小学校,神奈川県横浜市青葉区すすき野一丁目6-4,35.57568802,139.5293589,ケンザンショウガッコウ,青葉区,13
地域防災拠点,被災した住民の避難生活の場所、情報受伝達、備蓄機能を備えた拠点です。,東市ケ尾小学校,神奈川県横浜市青葉区市ケ尾町519,35.54311145,139.5464141,ヒガシイチガオショウガッコウ,青葉区,13
地域防災拠点,被災した住民の避難生活の場所、情報受伝達、備蓄機能を備えた拠点です。,鴨志田第一小学校,神奈川県横浜市青葉区鴨志田町805-6,35.55737733,139.5094837,カモシダダイイチショウガッコウ,青葉区,13
地域防災拠点,被災した住民の避難生活の場所、情報受伝達、備蓄機能を備えた拠点です。,あざみ野第二小学校,神奈川県横浜市青葉区あざみ野三丁目29-3,35.56417917,139.5418192,アザミノダイニショウガッコウ,青葉区,13
地域防災拠点,被災した住民の避難生活の場所、情報受伝達、備蓄機能を備えた拠点です。,鴨志田緑小学校,神奈川県横浜市青葉区鴨志田町532,35.56381038,139.5052919,カモシダミドリショウガッコウ,青葉区,13
地域防災拠点,被災した住民の避難生活の場所、情報受伝達、備蓄機能を備えた拠点です。,荏子田小学校,神奈川県横浜市青葉区荏子田三丁目8-9,35.57482839,139.535145,エコダショウガッコウ,青葉区,13
地域防災拠点,被災した住民の避難生活の場所、情報受伝達、備蓄機能を備えた拠点です。,恩田小学校,神奈川県横浜市青葉区桂台二丁目36,35.55237652,139.4996892,オンダショウガッコウ,青葉区,13
地域防災拠点,被災した住民の避難生活の場所、情報受伝達、備蓄機能を備えた拠点です。,新石川小学校,神奈川県横浜市青葉区新石川三丁目12-1,35.57636868,139.5622028,シンイシカワショウガッコウ,青葉区,13
地域防災拠点,被災した住民の避難生活の場所、情報受伝達、備蓄機能を備えた拠点です。,さつきが丘小学校,神奈川県横浜市青葉区さつきが丘8,35.53257138,139.5187048,サツキガオカショウガッコウ,青葉区,13
地域防災拠点,被災した住民の避難生活の場所、情報受伝達、備蓄機能を備えた拠点です。,荏田西小学校,神奈川県横浜市青葉区荏田西四丁目5-1,35.54738549,139.5492787,エダニシショウガッコウ,青葉区,13
地域防災拠点,被災した住民の避難生活の場所、情報受伝達、備蓄機能を備えた拠点です。,桂小学校,神奈川県横浜市青葉区桂台一丁目4,35.54848707,139.5053527,カツラショウガッコウ,青葉区,13
地域防災拠点,被災した住民の避難生活の場所、情報受伝達、備蓄機能を備えた拠点です。,奈良の丘小学校,神奈川県横浜市青葉区奈良二丁目29-1,35.5513346,139.4867836,ナラノオカショウガッコウ,青葉区,13
地域防災拠点,被災した住民の避難生活の場所、情報受伝達、備蓄機能を備えた拠点です。,山内中学校,神奈川県横浜市青葉区美しが丘五丁目4,35.57652133,139.552285,ヤマウチチュウガッコウ,青葉区,13
地域防災拠点,被災した住民の避難生活の場所、情報受伝達、備蓄機能を備えた拠点です。,谷本中学校,神奈川県横浜市青葉区梅が丘5,35.53690082,139.5223458,ヤモトチュウガッコウ,青葉区,13
地域防災拠点,被災した住民の避難生活の場所、情報受伝達、備蓄機能を備えた拠点です。,青葉台中学校,神奈川県横浜市青葉区青葉台二丁目25-2,35.54720905,139.5151801,アオバダイチュウガッコウ,青葉区,13
地域防災拠点,被災した住民の避難生活の場所、情報受伝達、備蓄機能を備えた拠点です。,みたけ台中学校,神奈川県横浜市青葉区みたけ台30,35.5568434,139.5214267,ミタケダイチュウガッコウ,青葉区,13
地域防災拠点,被災した住民の避難生活の場所、情報受伝達、備蓄機能を備えた拠点です。,美しが丘中学校,神奈川県横浜市青葉区美しが丘三丁目41-1,35.58767026,139.5513115,ウツクシガオカチュウガッコウ,青葉区,13
地域防災拠点,被災した住民の避難生活の場所、情報受伝達、備蓄機能を備えた拠点です。,緑が丘中学校,神奈川県横浜市青葉区千草台50-1,35.53574876,139.5362165,ミドリガオカチュウガッコウ,青葉区,13
地域防災拠点,被災した住民の避難生活の場所、情報受伝達、備蓄機能を備えた拠点です。,奈良中学校,神奈川県横浜市青葉区すみよし台36-3,35.55688112,139.4949835,ナラチュウガッコウ,青葉区,13
地域防災拠点,被災した住民の避難生活の場所、情報受伝達、備蓄機能を備えた拠点です。,あざみ野中学校,神奈川県横浜市青葉区あざみ野一丁目29-1,35.57218106,139.5470629,アザミノチュウガッコウ,青葉区,13
地域防災拠点,被災した住民の避難生活の場所、情報受伝達、備蓄機能を備えた拠点です。,黒須田小学校,神奈川県横浜市青葉区黒須田34-1,35.56821712,139.5332811,クロスダショウガッコウ,青葉区,13
地域防災拠点,被災した住民の避難生活の場所、情報受伝達、備蓄機能を備えた拠点です。,あかね台中学校,神奈川県横浜市青葉区あかね台二丁目8-2,35.54172125,139.4850232,アカネダイチュウガッコウ,青葉区,13
地域防災拠点,被災した住民の避難生活の場所、情報受伝達、備蓄機能を備えた拠点です。,美しが丘西小学校,神奈川県横浜市青葉区美しが丘西二丁目48-1,35.59045323,139.5343177,ウツクシガオカニシショウガッコウ,青葉区,13
地域防災拠点,被災した住民の避難生活の場所、情報受伝達、備蓄機能を備えた拠点です。,中川小学校,神奈川県横浜市都筑区牛久保東二丁目21-1,35.55063865,139.5877973,ナカガワショウガッコウ,都筑区,14
地域防災拠点,被災した住民の避難生活の場所、情報受伝達、備蓄機能を備えた拠点です。,山田小学校,神奈川県横浜市都筑区東山田三丁目29-1,35.55977311,139.6031203,ヤマダショウガッコウ,都筑区,14
地域防災拠点,被災した住民の避難生活の場所、情報受伝達、備蓄機能を備えた拠点です。,勝田小学校,神奈川県横浜市都筑区勝田町266,35.54344648,139.5950415,カチダショウガッコウ,都筑区,14
地域防災拠点,被災した住民の避難生活の場所、情報受伝達、備蓄機能を備えた拠点です。,すみれが丘小学校,神奈川県横浜市都筑区すみれが丘34,35.56598011,139.5801597,スミレガオカショウガッコウ,都筑区,14
地域防災拠点,被災した住民の避難生活の場所、情報受伝達、備蓄機能を備えた拠点です。,茅ケ崎小学校,神奈川県横浜市都筑区茅ケ崎南一丁目11-1,35.54056408,139.580281,チガサキショウガッコウ,都筑区,14
地域防災拠点,被災した住民の避難生活の場所、情報受伝達、備蓄機能を備えた拠点です。,中川西小学校,神奈川県横浜市都筑区中川一丁目3-1,35.56010506,139.5691108,ナカガワニシショウガッコウ,都筑区,14
地域防災拠点,被災した住民の避難生活の場所、情報受伝達、備蓄機能を備えた拠点です。,都田小学校,神奈川県横浜市都筑区池辺町2831,35.52229897,139.5715346,ツダショウガッコウ,都筑区,14
地域防災拠点,被災した住民の避難生活の場所、情報受伝達、備蓄機能を備えた拠点です。,川和小学校,神奈川県横浜市都筑区川和町1463,35.52966053,139.5474916,カワワショウガッコウ,都筑区,14
地域防災拠点,被災した住民の避難生活の場所、情報受伝達、備蓄機能を備えた拠点です。,折本小学校,神奈川県横浜市都筑区折本町1321,35.5282255,139.5945452,オリモトショウガッコウ,都筑区,14
地域防災拠点,被災した住民の避難生活の場所、情報受伝達、備蓄機能を備えた拠点です。,荏田小学校,神奈川県横浜市都筑区荏田南町694,35.55722799,139.5639981,エダショウガッコウ,都筑区,14
地域防災拠点,被災した住民の避難生活の場所、情報受伝達、備蓄機能を備えた拠点です。,都田西小学校,神奈川県横浜市都筑区池辺町2452-1,35.52148787,139.5632922,ツダニシショウガッコウ,都筑区,14
地域防災拠点,被災した住民の避難生活の場所、情報受伝達、備蓄機能を備えた拠点です。,荏田東第一小学校,神奈川県横浜市都筑区荏田東三丁目5-1,35.54693088,139.5627136,エダヒガシダイイチショウガッコウ,都筑区,14
地域防災拠点,被災した住民の避難生活の場所、情報受伝達、備蓄機能を備えた拠点です。,荏田南小学校,神奈川県横浜市都筑区荏田南二丁目5-2,35.543911,139.556734,エダミナミショウガッコウ,都筑区,14
地域防災拠点,被災した住民の避難生活の場所、情報受伝達、備蓄機能を備えた拠点です。,茅ケ崎台小学校,神奈川県横浜市都筑区長坂13-1,35.53723518,139.5699729,チガサキダイショウガッコウ,都筑区,14
地域防災拠点,被災した住民の避難生活の場所、情報受伝達、備蓄機能を備えた拠点です。,川和東小学校,神奈川県横浜市都筑区富士見が丘21-2,35.53175813,139.5581169,カワワヒガシショウガッコウ,都筑区,14
地域防災拠点,被災した住民の避難生活の場所、情報受伝達、備蓄機能を備えた拠点です。,北山田小学校,神奈川県横浜市都筑区北山田五丁目14-1,35.56476923,139.5858317,キタヤマダショウガッコウ,都筑区,14
地域防災拠点,被災した住民の避難生活の場所、情報受伝達、備蓄機能を備えた拠点です。,都筑小学校,神奈川県横浜市都筑区中川六丁目2-1,35.55665426,139.5747964,ツヅキショウガッコウ,都筑区,14
地域防災拠点,被災した住民の避難生活の場所、情報受伝達、備蓄機能を備えた拠点です。,南山田小学校,神奈川県横浜市都筑区南山田二丁目27-1,35.55738997,139.5890539,ミナミヤマダショウガッコウ,都筑区,14
地域防災拠点,被災した住民の避難生活の場所、情報受伝達、備蓄機能を備えた拠点です。,つづきの丘小学校,神奈川県横浜市都筑区荏田東一丁目22-1,35.54568099,139.5658172,ツヅキノオカショウガッコウ,都筑区,14
地域防災拠点,被災した住民の避難生活の場所、情報受伝達、備蓄機能を備えた拠点です。,東山田小学校,神奈川県横浜市都筑区東山田一丁目4-1,35.56444617,139.596252,ヒガシヤマダショウガッコウ,都筑区,14
地域防災拠点,被災した住民の避難生活の場所、情報受伝達、備蓄機能を備えた拠点です。,茅ケ崎東小学校,神奈川県横浜市都筑区茅ケ崎東二丁目11-1,35.54282685,139.5809416,チガサキヒガシショウガッコウ,都筑区,14
地域防災拠点,被災した住民の避難生活の場所、情報受伝達、備蓄機能を備えた拠点です。,中川中学校,神奈川県横浜市都筑区大棚町240,35.55106343,139.5934483,ナカガワチュウガッコウ,都筑区,14
地域防災拠点,被災した住民の避難生活の場所、情報受伝達、備蓄機能を備えた拠点です。,茅ケ崎中学校,神奈川県横浜市都筑区茅ケ崎南一丁目10-1,35.54071569,139.5821276,チガサキチュウガッコウ,都筑区,14
地域防災拠点,被災した住民の避難生活の場所、情報受伝達、備蓄機能を備えた拠点です。,中川西中学校,神奈川県横浜市都筑区中川二丁目1-1,35.56203768,139.5654586,ナカガワニシチュウガッコウ,都筑区,14
地域防災拠点,被災した住民の避難生活の場所、情報受伝達、備蓄機能を備えた拠点です。,都田中学校,神奈川県横浜市都筑区池辺町2818,35.52299035,139.5705447,ツダチュウガッコウ,都筑区,14
地域防災拠点,被災した住民の避難生活の場所、情報受伝達、備蓄機能を備えた拠点です。,川和中学校,神奈川県横浜市都筑区富士見が丘21-1,35.53081153,139.5568939,カワワチュウガッコウ,都筑区,14
地域防災拠点,被災した住民の避難生活の場所、情報受伝達、備蓄機能を備えた拠点です。,牛久保小学校,神奈川県横浜市都筑区牛久保一丁目23,35.55936441,139.5820101,ウシクボショウガッコウ,都筑区,14
地域防災拠点,被災した住民の避難生活の場所、情報受伝達、備蓄機能を備えた拠点です。,境木小学校,神奈川県横浜市戸塚区平戸三丁目48-2,35.4365292,139.5685151,サカイギショウガッコウ,戸塚区,15
地域防災拠点,被災した住民の避難生活の場所、情報受伝達、備蓄機能を備えた拠点です。,戸塚小学校,神奈川県横浜市戸塚区戸塚町132,35.39711583,139.5325,トツカショウガッコウ,戸塚区,15
地域防災拠点,被災した住民の避難生活の場所、情報受伝達、備蓄機能を備えた拠点です。,汲沢小学校,神奈川県横浜市戸塚区汲沢三丁目6-1,35.39743251,139.5141253,グミサワショウガッコウ,戸塚区,15
地域防災拠点,被災した住民の避難生活の場所、情報受伝達、備蓄機能を備えた拠点です。,東戸塚小学校,神奈川県横浜市戸塚区吉田町88,35.40141889,139.5381247,ヒガシトツカショウガッコウ,戸塚区,15
地域防災拠点,被災した住民の避難生活の場所、情報受伝達、備蓄機能を備えた拠点です。,大正小学校,神奈川県横浜市戸塚区原宿四丁目17-1,35.37943892,139.5034245,タイショウショウガッコウ,戸塚区,15
地域防災拠点,被災した住民の避難生活の場所、情報受伝達、備蓄機能を備えた拠点です。,小雀小学校,神奈川県横浜市戸塚区小雀町1845,35.37676169,139.5117719,コスズメショウガッコウ,戸塚区,15
地域防災拠点,被災した住民の避難生活の場所、情報受伝達、備蓄機能を備えた拠点です。,矢部小学校,神奈川県横浜市戸塚区矢部町1698,35.40720683,139.5235787,ヤベショウガッコウ,戸塚区,15
地域防災拠点,被災した住民の避難生活の場所、情報受伝達、備蓄機能を備えた拠点です。,深谷台小学校,神奈川県横浜市戸塚区深谷町1312-1,35.38795497,139.4966495,フカヤダイショウガッコウ,戸塚区,15
地域防災拠点,被災した住民の避難生活の場所、情報受伝達、備蓄機能を備えた拠点です。,川上小学校,神奈川県横浜市戸塚区秋葉町203-2,35.42638338,139.5453601,カワカミショウガッコウ,戸塚区,15
地域防災拠点,被災した住民の避難生活の場所、情報受伝達、備蓄機能を備えた拠点です。,柏尾小学校,神奈川県横浜市戸塚区柏尾町1317,35.41477212,139.5515614,カシオショウガッコウ,戸塚区,15
地域防災拠点,被災した住民の避難生活の場所、情報受伝達、備蓄機能を備えた拠点です。,川上北小学校,神奈川県横浜市戸塚区川上町63-1,35.42882287,139.55416,カワカミキタショウガッコウ,戸塚区,15
地域防災拠点,被災した住民の避難生活の場所、情報受伝達、備蓄機能を備えた拠点です。,深谷小学校,神奈川県横浜市戸塚区深谷町1688-2,35.39201208,139.5029731,フカヤショウガッコウ,戸塚区,15
地域防災拠点,被災した住民の避難生活の場所、情報受伝達、備蓄機能を備えた拠点です。,南戸塚小学校,神奈川県横浜市戸塚区戸塚町2790-3,35.38814366,139.5257862,ミナミトツカショウガッコウ,戸塚区,15
地域防災拠点,被災した住民の避難生活の場所、情報受伝達、備蓄機能を備えた拠点です。,平戸小学校,神奈川県横浜市戸塚区平戸町542,35.42696263,139.5640852,ヒラドショウガッコウ,戸塚区,15
地域防災拠点,被災した住民の避難生活の場所、情報受伝達、備蓄機能を備えた拠点です。,東汲沢小学校,神奈川県横浜市戸塚区汲沢一丁目16-1,35.39929618,139.5211331,ヒガシグミサワショウガッコウ,戸塚区,15
地域防災拠点,被災した住民の避難生活の場所、情報受伝達、備蓄機能を備えた拠点です。,名瀬小学校,神奈川県横浜市戸塚区名瀬町776,35.43092854,139.5409607,ナセショウガッコウ,戸塚区,15
地域防災拠点,被災した住民の避難生活の場所、情報受伝達、備蓄機能を備えた拠点です。,俣野小学校,神奈川県横浜市戸塚区俣野町371,35.37833642,139.4958581,マタノショウガッコウ,戸塚区,15
地域防災拠点,被災した住民の避難生活の場所、情報受伝達、備蓄機能を備えた拠点です。,平戸台小学校,神奈川県横浜市戸塚区平戸町1165,35.4229196,139.5681608,ヒラドダイショウガッコウ,戸塚区,15
地域防災拠点,被災した住民の避難生活の場所、情報受伝達、備蓄機能を備えた拠点です。,鳥が丘小学校,神奈川県横浜市戸塚区鳥が丘53,35.41110368,139.5225647,トリガオカショウガッコウ,戸塚区,15
地域防災拠点,被災した住民の避難生活の場所、情報受伝達、備蓄機能を備えた拠点です。,南舞岡小学校,神奈川県横浜市戸塚区南舞岡四丁目15-1,35.38924793,139.5544015,ミナミマイオカショウガッコウ,戸塚区,15
地域防災拠点,被災した住民の避難生活の場所、情報受伝達、備蓄機能を備えた拠点です。,上矢部小学校,神奈川県横浜市戸塚区上矢部町1463-4,35.4234449,139.5284632,カミヤベショウガッコウ,戸塚区,15
地域防災拠点,被災した住民の避難生活の場所、情報受伝達、備蓄機能を備えた拠点です。,品濃小学校,神奈川県横浜市戸塚区品濃町504-1,35.42608931,139.5576939,シナノショウガッコウ,戸塚区,15
地域防災拠点,被災した住民の避難生活の場所、情報受伝達、備蓄機能を備えた拠点です。,秋葉小学校,神奈川県横浜市戸塚区秋葉町392-1,35.42109228,139.5448727,アキバショウガッコウ,戸塚区,15
地域防災拠点,被災した住民の避難生活の場所、情報受伝達、備蓄機能を備えた拠点です。,東俣野小学校,神奈川県横浜市戸塚区東俣野町1103-1,35.36785194,139.4964465,ヒガシマタノショウガッコウ,戸塚区,15
地域防災拠点,被災した住民の避難生活の場所、情報受伝達、備蓄機能を備えた拠点です。,舞岡小学校,神奈川県横浜市戸塚区舞岡町534,35.40730837,139.5509888,マイオカショウガッコウ,戸塚区,15
地域防災拠点,被災した住民の避難生活の場所、情報受伝達、備蓄機能を備えた拠点です。,倉田小学校,神奈川県横浜市戸塚区上倉田町1426-6,35.3893714,139.5411334,クラタショウガッコウ,戸塚区,15
地域防災拠点,被災した住民の避難生活の場所、情報受伝達、備蓄機能を備えた拠点です。,東品濃小学校,神奈川県横浜市戸塚区品濃町559,35.43424575,139.560619,ヒガシシナノショウガッコウ,戸塚区,15
地域防災拠点,被災した住民の避難生活の場所、情報受伝達、備蓄機能を備えた拠点です。,下郷小学校,神奈川県横浜市戸塚区戸塚町2447-2,35.38641995,139.5240202,シモゴウショウガッコウ,戸塚区,15
地域防災拠点,被災した住民の避難生活の場所、情報受伝達、備蓄機能を備えた拠点です。,境木中学校,神奈川県横浜市戸塚区平戸三丁目48-2,35.43658266,139.5694735,サカイギチュウガッコウ,戸塚区,15
地域防災拠点,被災した住民の避難生活の場所、情報受伝達、備蓄機能を備えた拠点です。,戸塚中学校,神奈川県横浜市戸塚区戸塚町4542,35.40122291,139.523622,トツカチュウガッコウ,戸塚区,15
地域防災拠点,被災した住民の避難生活の場所、情報受伝達、備蓄機能を備えた拠点です。,大正中学校,神奈川県横浜市戸塚区原宿四丁目12-1,35.37813742,139.5030727,タイショウチュウガッコウ,戸塚区,15
地域防災拠点,被災した住民の避難生活の場所、情報受伝達、備蓄機能を備えた拠点です。,舞岡中学校,神奈川県横浜市戸塚区舞岡町226,35.40936633,139.5448349,マイオカチュウガッコウ,戸塚区,15
地域防災拠点,被災した住民の避難生活の場所、情報受伝達、備蓄機能を備えた拠点です。,豊田中学校,神奈川県横浜市戸塚区下倉田町950,35.3820103,139.5421032,トヨダチュウガッコウ,戸塚区,15
地域防災拠点,被災した住民の避難生活の場所、情報受伝達、備蓄機能を備えた拠点です。,汲沢中学校,神奈川県横浜市戸塚区汲沢町550-2,35.39822032,139.5076172,グミサワチュウガッコウ,戸塚区,15
地域防災拠点,被災した住民の避難生活の場所、情報受伝達、備蓄機能を備えた拠点です。,名瀬中学校,神奈川県横浜市戸塚区名瀬町791-6,35.43368095,139.5433713,ナセチュウガッコウ,戸塚区,15
地域防災拠点,被災した住民の避難生活の場所、情報受伝達、備蓄機能を備えた拠点です。,南戸塚中学校,神奈川県横浜市戸塚区戸塚町1842-1,35.38078571,139.5183609,ミナミトツカチュウガッコウ,戸塚区,15
地域防災拠点,被災した住民の避難生活の場所、情報受伝達、備蓄機能を備えた拠点です。,本郷小学校,神奈川県横浜市栄区中野町16-1,35.36293848,139.5613251,ホンゴウショウガッコウ,栄区,16
地域防災拠点,被災した住民の避難生活の場所、情報受伝達、備蓄機能を備えた拠点です。,豊田小学校,神奈川県横浜市栄区長沼町125-4,35.3823315,139.5357686,トヨダショウガッコウ,栄区,16
地域防災拠点,被災した住民の避難生活の場所、情報受伝達、備蓄機能を備えた拠点です。,千秀小学校,神奈川県横浜市栄区田谷町1832,35.37133246,139.5199555,センシュウショウガッコウ,栄区,16
地域防災拠点,被災した住民の避難生活の場所、情報受伝達、備蓄機能を備えた拠点です。,飯島小学校,神奈川県横浜市栄区飯島町771-2,35.37287866,139.5350808,イイジマショウガッコウ,栄区,16
地域防災拠点,被災した住民の避難生活の場所、情報受伝達、備蓄機能を備えた拠点です。,桂台小学校,神奈川県横浜市栄区桂台南一丁目1-1,35.35237099,139.5638944,カツラダイショウガッコウ,栄区,16
地域防災拠点,被災した住民の避難生活の場所、情報受伝達、備蓄機能を備えた拠点です。,西本郷小学校,神奈川県横浜市栄区小菅ケ谷二丁目22-1,35.36555927,139.5419184,ニシホンゴウショウガッコウ,栄区,16
地域防災拠点,被災した住民の避難生活の場所、情報受伝達、備蓄機能を備えた拠点です。,旧・野七里小学校,神奈川県横浜市栄区野七里二丁目3-1,35.34613246,139.579378,キュウ・ノシチリショウガッコウ,栄区,16
地域防災拠点,被災した住民の避難生活の場所、情報受伝達、備蓄機能を備えた拠点です。,本郷台小学校,神奈川県横浜市栄区本郷台一丁目6-1,35.37134002,139.5492436,ホンゴウダイショウガッコウ,栄区,16
地域防災拠点,被災した住民の避難生活の場所、情報受伝達、備蓄機能を備えた拠点です。,上郷小学校,神奈川県横浜市栄区犬山町6-1,35.35808912,139.5718437,カミゴウショウガッコウ,栄区,16
地域防災拠点,被災した住民の避難生活の場所、情報受伝達、備蓄機能を備えた拠点です。,小菅ケ谷小学校,神奈川県横浜市栄区本郷台四丁目31-1,35.37700739,139.5483237,コスガヤショウガッコウ,栄区,16
地域防災拠点,被災した住民の避難生活の場所、情報受伝達、備蓄機能を備えた拠点です。,公田小学校,神奈川県横浜市栄区公田町354-3,35.35433312,139.5536165,クデンショウガッコウ,栄区,16
地域防災拠点,被災した住民の避難生活の場所、情報受伝達、備蓄機能を備えた拠点です。,庄戸小学校,神奈川県横浜市栄区庄戸一丁目15-1,35.35291254,139.5845212,ショウドショウガッコウ,栄区,16
地域防災拠点,被災した住民の避難生活の場所、情報受伝達、備蓄機能を備えた拠点です。,小山台小学校,神奈川県横浜市栄区小山台一丁目15-1,35.38008857,139.5578153,コヤマダイショウガッコウ,栄区,16
地域防災拠点,被災した住民の避難生活の場所、情報受伝達、備蓄機能を備えた拠点です。,笠間小学校,神奈川県横浜市栄区笠間三丁目28-1,35.36207578,139.5319537,カサマショウガッコウ,栄区,16
地域防災拠点,被災した住民の避難生活の場所、情報受伝達、備蓄機能を備えた拠点です。,桜井小学校,神奈川県横浜市栄区上郷町242-2,35.36596138,139.5724466,サクライショウガッコウ,栄区,16
地域防災拠点,被災した住民の避難生活の場所、情報受伝達、備蓄機能を備えた拠点です。,本郷中学校,神奈川県横浜市栄区桂町84-14,35.36456766,139.5505148,ホンゴウチュウガッコウ,栄区,16
地域防災拠点,被災した住民の避難生活の場所、情報受伝達、備蓄機能を備えた拠点です。,桂台中学校,神奈川県横浜市栄区桂台中5-1,35.35398121,139.5649366,カツラダイチュウガッコウ,栄区,16
地域防災拠点,被災した住民の避難生活の場所、情報受伝達、備蓄機能を備えた拠点です。,西本郷中学校,神奈川県横浜市栄区小菅ケ谷一丁目29-1,35.36403931,139.5430609,ニシホンゴウチュウガッコウ,栄区,16
地域防災拠点,被災した住民の避難生活の場所、情報受伝達、備蓄機能を備えた拠点です。,飯島中学校,神奈川県横浜市栄区飯島町746-1,35.3729461,139.5318498,イイジマチュウガッコウ,栄区,16
地域防災拠点,被災した住民の避難生活の場所、情報受伝達、備蓄機能を備えた拠点です。,庄戸中学校,神奈川県横浜市栄区庄戸三丁目1-1,35.35197646,139.5851483,ショウドチュウガッコウ,栄区,16
地域防災拠点,被災した住民の避難生活の場所、情報受伝達、備蓄機能を備えた拠点です。,中和田小学校,神奈川県横浜市泉区和泉町3721,35.41549343,139.4908485,ナカワダショウガッコウ,泉区,17
地域防災拠点,被災した住民の避難生活の場所、情報受伝達、備蓄機能を備えた拠点です。,中田小学校,神奈川県横浜市泉区中田南四丁目4-1,35.41025664,139.5078228,ナカダショウガッコウ,泉区,17
地域防災拠点,被災した住民の避難生活の場所、情報受伝達、備蓄機能を備えた拠点です。,岡津小学校,神奈川県横浜市泉区岡津町2311,35.42815048,139.5245365,オカズショウガッコウ,泉区,17
地域防災拠点,被災した住民の避難生活の場所、情報受伝達、備蓄機能を備えた拠点です。,下和泉小学校,神奈川県横浜市泉区和泉町1436,35.40103062,139.4930067,シモイズミショウガッコウ,泉区,17
地域防災拠点,被災した住民の避難生活の場所、情報受伝達、備蓄機能を備えた拠点です。,中和田南小学校,神奈川県横浜市泉区和泉町987,35.39803152,139.484283,ナカワダミナミショウガッコウ,泉区,17
地域防災拠点,被災した住民の避難生活の場所、情報受伝達、備蓄機能を備えた拠点です。,上飯田小学校,神奈川県横浜市泉区上飯田町1331,35.4238204,139.4802382,カミイイダショウガッコウ,泉区,17
地域防災拠点,被災した住民の避難生活の場所、情報受伝達、備蓄機能を備えた拠点です。,東中田小学校,神奈川県横浜市泉区中田東四丁目43-1,35.41727919,139.511681,ヒガシナカダショウガッコウ,泉区,17
地域防災拠点,被災した住民の避難生活の場所、情報受伝達、備蓄機能を備えた拠点です。,新橋小学校,神奈川県横浜市泉区新橋町909,35.4341681,139.5063788,シンバシショウガッコウ,泉区,17
地域防災拠点,被災した住民の避難生活の場所、情報受伝達、備蓄機能を備えた拠点です。,和泉小学校,神奈川県横浜市泉区和泉町4320,35.42270192,139.4965716,イズミショウガッコウ,泉区,17
地域防災拠点,被災した住民の避難生活の場所、情報受伝達、備蓄機能を備えた拠点です。,いちょう小学校,神奈川県横浜市泉区上飯田町3220-4,35.43192098,139.4754579,イチョウショウガッコウ,泉区,17
地域防災拠点,被災した住民の避難生活の場所、情報受伝達、備蓄機能を備えた拠点です。,葛野小学校,神奈川県横浜市泉区中田南五丁目15-1,35.40375872,139.5083379,クズノショウガッコウ,泉区,17
地域防災拠点,被災した住民の避難生活の場所、情報受伝達、備蓄機能を備えた拠点です。,いずみ野小学校,神奈川県横浜市泉区和泉町6211,35.43417812,139.4946268,イズミノショウガッコウ,泉区,17
地域防災拠点,被災した住民の避難生活の場所、情報受伝達、備蓄機能を備えた拠点です。,飯田北小学校,神奈川県横浜市泉区上飯田町3795,35.43448387,139.4813361,イイダキタショウガッコウ,泉区,17
地域防災拠点,被災した住民の避難生活の場所、情報受伝達、備蓄機能を備えた拠点です。,伊勢山小学校,神奈川県横浜市泉区和泉町2868,35.41073394,139.4967955,イセヤマショウガッコウ,泉区,17
地域防災拠点,被災した住民の避難生活の場所、情報受伝達、備蓄機能を備えた拠点です。,緑園東小学校,神奈川県横浜市泉区緑園五丁目28,35.44383201,139.5264355,リョクエンヒガシショウガッコウ,泉区,17
地域防災拠点,被災した住民の避難生活の場所、情報受伝達、備蓄機能を備えた拠点です。,緑園西小学校,神奈川県横浜市泉区緑園三丁目39,35.4406517,139.5175956,リョクエンニシショウガッコウ,泉区,17
地域防災拠点,被災した住民の避難生活の場所、情報受伝達、備蓄機能を備えた拠点です。,西が岡小学校,神奈川県横浜市泉区西が岡三丁目12-11,35.41906743,139.5158055,ニシガオカショウガッコウ,泉区,17
地域防災拠点,被災した住民の避難生活の場所、情報受伝達、備蓄機能を備えた拠点です。,中和田中学校,神奈川県横浜市泉区和泉町4062,35.4160744,139.4982571,ナカワダチュウガッコウ,泉区,17
地域防災拠点,被災した住民の避難生活の場所、情報受伝達、備蓄機能を備えた拠点です。,中田中学校,神奈川県横浜市泉区中田北二丁目20-1,35.4148478,139.5050149,ナカダチュウガッコウ,泉区,17
地域防災拠点,被災した住民の避難生活の場所、情報受伝達、備蓄機能を備えた拠点です。,泉が丘中学校,神奈川県横浜市泉区和泉町2221,35.40509696,139.4920593,イズミガオカチュウガッコウ,泉区,17
地域防災拠点,被災した住民の避難生活の場所、情報受伝達、備蓄機能を備えた拠点です。,上飯田中学校,神奈川県横浜市泉区上飯田町2254,35.42988106,139.4816364,カミイイダチュウガッコウ,泉区,17
地域防災拠点,被災した住民の避難生活の場所、情報受伝達、備蓄機能を備えた拠点です。,いずみ野中学校,神奈川県横浜市泉区和泉町6201,35.4318404,139.4979782,イズミノチュウガッコウ,泉区,17
地域防災拠点,被災した住民の避難生活の場所、情報受伝達、備蓄機能を備えた拠点です。,領家中学校,神奈川県横浜市泉区領家四丁目3-1,35.41527635,139.5210559,リョウケチュウガッコウ,泉区,17
地域防災拠点,被災した住民の避難生活の場所、情報受伝達、備蓄機能を備えた拠点です。,原小学校,神奈川県横浜市瀬谷区阿久和東四丁目33-1,35.44705287,139.5006238,ハラショウガッコウ,瀬谷区,18
地域防災拠点,被災した住民の避難生活の場所、情報受伝達、備蓄機能を備えた拠点です。,上瀬谷小学校,神奈川県横浜市瀬谷区瀬谷町7140,35.48922691,139.4769431,カミセヤショウガッコウ,瀬谷区,18
地域防災拠点,被災した住民の避難生活の場所、情報受伝達、備蓄機能を備えた拠点です。,瀬谷小学校,神奈川県横浜市瀬谷区相沢四丁目1-1,35.47256874,139.4845366,セヤショウガッコウ,瀬谷区,18
地域防災拠点,被災した住民の避難生活の場所、情報受伝達、備蓄機能を備えた拠点です。,三ツ境小学校,神奈川県横浜市瀬谷区三ツ境157,35.46039988,139.4981875,ミツキョウショウガッコウ,瀬谷区,18
地域防災拠点,被災した住民の避難生活の場所、情報受伝達、備蓄機能を備えた拠点です。,南瀬谷小学校,神奈川県横浜市瀬谷区南瀬谷一丁目1-1,35.45703982,139.4866652,ミナミセヤショウガッコウ,瀬谷区,18
地域防災拠点,被災した住民の避難生活の場所、情報受伝達、備蓄機能を備えた拠点です。,二つ橋小学校,神奈川県横浜市瀬谷区二ツ橋町507,35.47276487,139.4975271,フタツバシショウガッコウ,瀬谷区,18
地域防災拠点,被災した住民の避難生活の場所、情報受伝達、備蓄機能を備えた拠点です。,瀬谷第二小学校,神奈川県横浜市瀬谷区橋戸二丁目41-1,35.46051134,139.4819888,セヤダイニショウガッコウ,瀬谷区,18
地域防災拠点,被災した住民の避難生活の場所、情報受伝達、備蓄機能を備えた拠点です。,相沢小学校,神奈川県横浜市瀬谷区相沢二丁目56-1,35.47522726,139.4902152,アイザワショウガッコウ,瀬谷区,18
地域防災拠点,被災した住民の避難生活の場所、情報受伝達、備蓄機能を備えた拠点です。,大門小学校,神奈川県横浜市瀬谷区本郷三丁目47-5,35.47132173,139.4751757,ダイモンショウガッコウ,瀬谷区,18
地域防災拠点,被災した住民の避難生活の場所、情報受伝達、備蓄機能を備えた拠点です。,瀬谷さくら小学校,神奈川県横浜市瀬谷区下瀬谷三丁目58-1,35.45126601,139.4814774,セヤサクラショウガッコウ,瀬谷区,18
地域防災拠点,被災した住民の避難生活の場所、情報受伝達、備蓄機能を備えた拠点です。,県立横浜ひなたやま支援学校,神奈川県横浜市瀬谷区南瀬谷二丁目20,35.44574377,139.4858904,ケンリツヨコハマヒナタヤマシエンガッコウ,瀬谷区,18
地域防災拠点,被災した住民の避難生活の場所、情報受伝達、備蓄機能を備えた拠点です。,阿久和小学校,神奈川県横浜市瀬谷区阿久和南四丁目8-2,35.44121445,139.4971693,アクワショウガッコウ,瀬谷区,18
地域防災拠点,被災した住民の避難生活の場所、情報受伝達、備蓄機能を備えた拠点です。,瀬谷中学校,神奈川県横浜市瀬谷区中央5-41,35.4713054,139.4812788,セヤチュウガッコウ,瀬谷区,18
地域防災拠点,被災した住民の避難生活の場所、情報受伝達、備蓄機能を備えた拠点です。,原中学校,神奈川県横浜市瀬谷区阿久和西二丁目1-6,35.45427379,139.4980683,ハラチュウガッコウ,瀬谷区,18
地域防災拠点,被災した住民の避難生活の場所、情報受伝達、備蓄機能を備えた拠点です。,南瀬谷中学校,神奈川県横浜市瀬谷区南台二丁目2-8,35.45743688,139.4853992,ミナミセヤチュウガッコウ,瀬谷区,18
帰宅困難者一時滞在施設,被災状況によっては提供できない場合もあります。開設状況は、「一時滞在ＮＡＶＩ」をご確認ください。,ナイス株式会社　本社ビル,神奈川県横浜市鶴見区鶴見中央四丁目33-1,35.507824,139.681595,,鶴見区,01
帰宅困難者一時滞在施設,被災状況によっては提供できない場合もあります。開設状況は、「一時滞在ＮＡＶＩ」をご確認ください。,株式会社松尾工務店,神奈川県横浜市鶴見区鶴見中央四丁目38-35,35.506603,139.680649,,鶴見区,01
帰宅困難者一時滞在施設,被災状況によっては提供できない場合もあります。開設状況は、「一時滞在ＮＡＶＩ」をご確認ください。,第二峯の湯,神奈川県横浜市鶴見区上末吉五丁目2-19,35.530933,139.666229,,鶴見区,01
帰宅困難者一時滞在施設,被災状況によっては提供できない場合もあります。開設状況は、「一時滞在ＮＡＶＩ」をご確認ください。,富士の湯,神奈川県横浜市鶴見区矢向三丁目28-12,35.536037,139.679672,,鶴見区,01
帰宅困難者一時滞在施設,被災状況によっては提供できない場合もあります。開設状況は、「一時滞在ＮＡＶＩ」をご確認ください。,矢向湯,神奈川県横浜市鶴見区矢向五丁目3-19,35.53688,139.68425,,鶴見区,01
帰宅困難者一時滞在施設,被災状況によっては提供できない場合もあります。開設状況は、「一時滞在ＮＡＶＩ」をご確認ください。,澤の湯,神奈川県横浜市鶴見区下野谷町1丁目43,35.501663,139.680057,,鶴見区,01
帰宅困難者一時滞在施設,被災状況によっては提供できない場合もあります。開設状況は、「一時滞在ＮＡＶＩ」をご確認ください。,清水湯,神奈川県横浜市鶴見区潮田町3丁目137-2,35.502758,139.68898,,鶴見区,01
帰宅困難者一時滞在施設,被災状況によっては提供できない場合もあります。開設状況は、「一時滞在ＮＡＶＩ」をご確認ください。,喜久の湯,神奈川県横浜市鶴見区馬場一丁目7-23,35.505715,139.6477034,,鶴見区,01
帰宅困難者一時滞在施設,被災状況によっては提供できない場合もあります。開設状況は、「一時滞在ＮＡＶＩ」をご確認ください。,春日湯,神奈川県横浜市鶴見区生麦四丁目7-23,35.497543,139.671097,,鶴見区,01
帰宅困難者一時滞在施設,被災状況によっては提供できない場合もあります。開設状況は、「一時滞在ＮＡＶＩ」をご確認ください。,キリンビール株式会社　横浜工場,神奈川県横浜市鶴見区生麦一丁目17-1,35.490116,139.662491,,鶴見区,01
帰宅困難者一時滞在施設,被災状況によっては提供できない場合もあります。開設状況は、「一時滞在ＮＡＶＩ」をご確認ください。,竹の湯,神奈川県横浜市鶴見区生麦三丁目14-2,35.493378,139.668991,,鶴見区,01
帰宅困難者一時滞在施設,被災状況によっては提供できない場合もあります。開設状況は、「一時滞在ＮＡＶＩ」をご確認ください。,学校法人三幸学園　横浜医療秘書歯科助手専門学校,神奈川県横浜市神奈川区西神奈川一丁目18-3,35.480991,139.631851,,神奈川区,02
帰宅困難者一時滞在施設,被災状況によっては提供できない場合もあります。開設状況は、「一時滞在ＮＡＶＩ」をご確認ください。,学校法人三幸学園　横浜こども専門学校,神奈川県横浜市神奈川区二ツ谷町1-19,35.476334,139.63089,,神奈川区,02
帰宅困難者一時滞在施設,被災状況によっては提供できない場合もあります。開設状況は、「一時滞在ＮＡＶＩ」をご確認ください。,学校法人三幸学園　横浜スイーツ＆カフェ専門学校,神奈川県横浜市神奈川区西神奈川一丁目7-5,35.479031,139.632263,,神奈川区,02
帰宅困難者一時滞在施設,被災状況によっては提供できない場合もあります。開設状況は、「一時滞在ＮＡＶＩ」をご確認ください。,学校法人三幸学園　横浜ビューティーアート専門学校,神奈川県横浜市神奈川区西神奈川一丁目19-6,35.480574,139.632183,,神奈川区,02
帰宅困難者一時滞在施設,被災状況によっては提供できない場合もあります。開設状況は、「一時滞在ＮＡＶＩ」をご確認ください。,学校法人三幸学園　横浜リゾート＆スポーツ専門学校,神奈川県横浜市神奈川区西神奈川一丁目19-2,35.480637,139.632371,,神奈川区,02
帰宅困難者一時滞在施設,被災状況によっては提供できない場合もあります。開設状況は、「一時滞在ＮＡＶＩ」をご確認ください。,宗教法人孝道山本仏殿,神奈川県横浜市神奈川区鳥越38,35.48247701,139.6319567,,神奈川区,02
帰宅困難者一時滞在施設,被災状況によっては提供できない場合もあります。開設状況は、「一時滞在ＮＡＶＩ」をご確認ください。,徳の湯,神奈川県横浜市神奈川区西神奈川二丁目1-5,35.482819,139.629135,,神奈川区,02
帰宅困難者一時滞在施設,被災状況によっては提供できない場合もあります。開設状況は、「一時滞在ＮＡＶＩ」をご確認ください。,反町浴場,神奈川県横浜市神奈川区上反町1丁目5-2,35.474346,139.624603,,神奈川区,02
帰宅困難者一時滞在施設,被災状況によっては提供できない場合もあります。開設状況は、「一時滞在ＮＡＶＩ」をご確認ください。,鷲の湯,神奈川県横浜市神奈川区七島町151,35.486968,139.644771,,神奈川区,02
帰宅困難者一時滞在施設,被災状況によっては提供できない場合もあります。開設状況は、「一時滞在ＮＡＶＩ」をご確認ください。,青木山　本覚寺,神奈川県横浜市神奈川区高島台1-2,35.471966,139.626266,,神奈川区,02
帰宅困難者一時滞在施設,被災状況によっては提供できない場合もあります。開設状況は、「一時滞在ＮＡＶＩ」をご確認ください。,学校法人岩崎学園　情報科学専門学校,神奈川県横浜市神奈川区鶴屋町2丁目17-1,35.468224,139.622253,,神奈川区,02
帰宅困難者一時滞在施設,被災状況によっては提供できない場合もあります。開設状況は、「一時滞在ＮＡＶＩ」をご確認ください。,学校法人代々木ゼミナール　横浜校,神奈川県横浜市神奈川区金港町7-9,35.469727,139.626755,,神奈川区,02
帰宅困難者一時滞在施設,被災状況によっては提供できない場合もあります。開設状況は、「一時滞在ＮＡＶＩ」をご確認ください。,谷川ビル,神奈川県横浜市神奈川区鶴屋町2丁目24-1,35.468529,139.620773,,神奈川区,02
帰宅困難者一時滞在施設,被災状況によっては提供できない場合もあります。開設状況は、「一時滞在ＮＡＶＩ」をご確認ください。,神奈川歯科大学附属横浜クリニック,神奈川県横浜市神奈川区鶴屋町3丁目31-6,35.468536,139.619827,,神奈川区,02
帰宅困難者一時滞在施設,被災状況によっては提供できない場合もあります。開設状況は、「一時滞在ＮＡＶＩ」をご確認ください。,学校法人岩崎学園　横浜ｆカレッジ,神奈川県横浜市西区北幸一丁目2-7,35.467625,139.620117,,西区,03
帰宅困難者一時滞在施設,被災状況によっては提供できない場合もあります。開設状況は、「一時滞在ＮＡＶＩ」をご確認ください。,ラウンドワン　横浜駅西口店,神奈川県横浜市西区南幸二丁目8-16,35.463825,139.618057,,西区,03
帰宅困難者一時滞在施設,被災状況によっては提供できない場合もあります。開設状況は、「一時滞在ＮＡＶＩ」をご確認ください。,富士ゼロックス株式会社Ｒ＆Ｄスクエア,神奈川県横浜市西区みなとみらい六丁目1,35.463444,139.627716,,西区,03
帰宅困難者一時滞在施設,被災状況によっては提供できない場合もあります。開設状況は、「一時滞在ＮＡＶＩ」をご確認ください。,宗教法人立正佼成会　横浜普門館,神奈川県横浜市西区北幸二丁目7-3,35.467773,139.616516,,西区,03
帰宅困難者一時滞在施設,被災状況によっては提供できない場合もあります。開設状況は、「一時滞在ＮＡＶＩ」をご確認ください。,ホテルキャメロットジャパン,神奈川県横浜市西区北幸一丁目11-3,35.467644,139.618423,,西区,03
帰宅困難者一時滞在施設,被災状況によっては提供できない場合もあります。開設状況は、「一時滞在ＮＡＶＩ」をご確認ください。,横浜国際ホテル,神奈川県横浜市西区南幸二丁目16-28,35.46455,139.617233,,西区,03
帰宅困難者一時滞在施設,被災状況によっては提供できない場合もあります。開設状況は、「一時滞在ＮＡＶＩ」をご確認ください。,日産自動車株式会社　本社ビル,神奈川県横浜市西区高島一丁目1-1,43.214176,141.012177,,西区,03
帰宅困難者一時滞在施設,被災状況によっては提供できない場合もあります。開設状況は、「一時滞在ＮＡＶＩ」をご確認ください。,ハマボール　イアス,神奈川県横浜市西区北幸二丁目2,35.465542,139.617859,,西区,03
帰宅困難者一時滞在施設,被災状況によっては提供できない場合もあります。開設状況は、「一時滞在ＮＡＶＩ」をご確認ください。,ヨコハマグランドインターコンチネンタルホテル,神奈川県横浜市西区みなとみらい一丁目1-1,35.457565,139.635696,,西区,03
帰宅困難者一時滞在施設,被災状況によっては提供できない場合もあります。開設状況は、「一時滞在ＮＡＶＩ」をご確認ください。,パシフィコ横浜,神奈川県横浜市西区みなとみらい一丁目1-1,35.457565,139.635696,,西区,03
帰宅困難者一時滞在施設,被災状況によっては提供できない場合もあります。開設状況は、「一時滞在ＮＡＶＩ」をご確認ください。,ケンセイビル,神奈川県横浜市西区浅間町5丁目387-8,35.455162,139.605331,,西区,03
帰宅困難者一時滞在施設,被災状況によっては提供できない場合もあります。開設状況は、「一時滞在ＮＡＶＩ」をご確認ください。,ブリーズベイホテル,神奈川県横浜市中区花咲町1丁目22-2,35.448851,139.630898,,中区,04
帰宅困難者一時滞在施設,被災状況によっては提供できない場合もあります。開設状況は、「一時滞在ＮＡＶＩ」をご確認ください。,横浜桜木町ワシントンホテル,神奈川県横浜市中区桜木町1丁目101-1,35.450812,139.632698,,中区,04
帰宅困難者一時滞在施設,被災状況によっては提供できない場合もあります。開設状況は、「一時滞在ＮＡＶＩ」をご確認ください。,クロスゲート,神奈川県横浜市中区桜木町1丁目101-1,35.450812,139.632698,,中区,04
帰宅困難者一時滞在施設,被災状況によっては提供できない場合もあります。開設状況は、「一時滞在ＮＡＶＩ」をご確認ください。,ホテル横浜ガーデン,神奈川県横浜市中区山下町254,35.44208,139.640908,,中区,04
帰宅困難者一時滞在施設,被災状況によっては提供できない場合もあります。開設状況は、「一時滞在ＮＡＶＩ」をご確認ください。,割烹蒲焼わかな（鈴木ビル）,神奈川県横浜市中区港町5丁目20 鈴木ビル,35.446364,139.634186,,中区,04
帰宅困難者一時滞在施設,被災状況によっては提供できない場合もあります。開設状況は、「一時滞在ＮＡＶＩ」をご確認ください。,関内新井ビル,神奈川県横浜市中区尾上町1丁目8,35.444816,139.638275,,中区,04
帰宅困難者一時滞在施設,被災状況によっては提供できない場合もあります。開設状況は、「一時滞在ＮＡＶＩ」をご確認ください。,学校法人横浜山手中華学園,神奈川県横浜市中区吉浜町2-66,35.438774,139.64212,,中区,04
帰宅困難者一時滞在施設,被災状況によっては提供できない場合もあります。開設状況は、「一時滞在ＮＡＶＩ」をご確認ください。,本牧ゆあそび館,神奈川県横浜市中区千代崎町2丁目41-1,35.433304,139.654312,,中区,04
帰宅困難者一時滞在施設,被災状況によっては提供できない場合もあります。開設状況は、「一時滞在ＮＡＶＩ」をご確認ください。,三菱重工業株式会社横浜製作所本牧工場,神奈川県横浜市中区錦町12,35.417556,139.673007,,中区,04
帰宅困難者一時滞在施設,被災状況によっては提供できない場合もあります。開設状況は、「一時滞在ＮＡＶＩ」をご確認ください。,ナビオス横浜,神奈川県横浜市中区新港二丁目1-1,35.453167,139.63797,,中区,04
帰宅困難者一時滞在施設,被災状況によっては提供できない場合もあります。開設状況は、「一時滞在ＮＡＶＩ」をご確認ください。,ゴールドジム横浜馬車道本館,神奈川県横浜市中区弁天通4丁目67-1 馬車道スクエアビル8階,35.448434,139.636642,,中区,04
帰宅困難者一時滞在施設,被災状況によっては提供できない場合もあります。開設状況は、「一時滞在ＮＡＶＩ」をご確認ください。,ゴールドジム横浜馬車道別館プールアネックス,神奈川県横浜市中区本町4丁目43 セボン関内第2ビルB1階,35.449114,139.637438,,中区,04
帰宅困難者一時滞在施設,被災状況によっては提供できない場合もあります。開設状況は、「一時滞在ＮＡＶＩ」をご確認ください。,ホテルＪＡＬシティ関内　横浜,神奈川県横浜市中区山下町72,35.445234,139.644408,,中区,04
帰宅困難者一時滞在施設,被災状況によっては提供できない場合もあります。開設状況は、「一時滞在ＮＡＶＩ」をご確認ください。,シルクセンター国際貿易観光会館,神奈川県横浜市中区山下町1,35.447214,139.645128,,中区,04
帰宅困難者一時滞在施設,被災状況によっては提供できない場合もあります。開設状況は、「一時滞在ＮＡＶＩ」をご確認ください。,スターホテル横浜,神奈川県横浜市中区山下町11,35.444571,139.650209,,中区,04
帰宅困難者一時滞在施設,被災状況によっては提供できない場合もあります。開設状況は、「一時滞在ＮＡＶＩ」をご確認ください。,ホテルニューグランド,神奈川県横浜市中区山下町10,35.444816,139.649561,,中区,04
帰宅困難者一時滞在施設,被災状況によっては提供できない場合もあります。開設状況は、「一時滞在ＮＡＶＩ」をご確認ください。,ホテルモントレ横浜,神奈川県横浜市中区山下町6-1,35.445768,139.647967,,中区,04
帰宅困難者一時滞在施設,被災状況によっては提供できない場合もあります。開設状況は、「一時滞在ＮＡＶＩ」をご確認ください。,ローズホテル横浜,神奈川県横浜市中区山下町77,35.444157,139.647001,,中区,04
帰宅困難者一時滞在施設,被災状況によっては提供できない場合もあります。開設状況は、「一時滞在ＮＡＶＩ」をご確認ください。,宗教法人創価学会　神奈川文化会館,神奈川県横浜市中区山下町7-1,35.44543275,139.6482894,,中区,04
帰宅困難者一時滞在施設,被災状況によっては提供できない場合もあります。開設状況は、「一時滞在ＮＡＶＩ」をご確認ください。,エスカル横浜,神奈川県横浜市中区山下町84,35.442725,139.649425,,中区,04
帰宅困難者一時滞在施設,被災状況によっては提供できない場合もあります。開設状況は、「一時滞在ＮＡＶＩ」をご確認ください。,メルパルク横浜,神奈川県横浜市中区山下町16,35.441116,139.641052,,中区,04
帰宅困難者一時滞在施設,被災状況によっては提供できない場合もあります。開設状況は、「一時滞在ＮＡＶＩ」をご確認ください。,利世館,神奈川県横浜市中区伊勢佐木町5丁目127-24,35.440419,139.627759,,中区,04
帰宅困難者一時滞在施設,被災状況によっては提供できない場合もあります。開設状況は、「一時滞在ＮＡＶＩ」をご確認ください。,中村浴場,神奈川県横浜市南区中村町2丁目117,35.434997,139.632111,,南区,05
帰宅困難者一時滞在施設,被災状況によっては提供できない場合もあります。開設状況は、「一時滞在ＮＡＶＩ」をご確認ください。,宗教法人大山ねずのみこと神示教会　信光会館,神奈川県横浜市南区宮元町4丁目82,35.428946,139.608912,,南区,05
帰宅困難者一時滞在施設,被災状況によっては提供できない場合もあります。開設状況は、「一時滞在ＮＡＶＩ」をご確認ください。,中島館,神奈川県横浜市南区中島町4丁目75-1,35.42437003,139.6015096,,南区,05
帰宅困難者一時滞在施設,被災状況によっては提供できない場合もあります。開設状況は、「一時滞在ＮＡＶＩ」をご確認ください。,若宮湯,神奈川県横浜市南区通町4丁目82-1,35.42511,139.603378,,南区,05
帰宅困難者一時滞在施設,被災状況によっては提供できない場合もあります。開設状況は、「一時滞在ＮＡＶＩ」をご確認ください。,横浜天然温泉　くさつ,神奈川県横浜市南区井土ケ谷上町21-29,35.431885,139.600189,,南区,05
帰宅困難者一時滞在施設,被災状況によっては提供できない場合もあります。開設状況は、「一時滞在ＮＡＶＩ」をご確認ください。,ゆーらんど新世館,神奈川県横浜市磯子区久木町4-10,35.416,139.623352,,磯子区,09
帰宅困難者一時滞在施設,被災状況によっては提供できない場合もあります。開設状況は、「一時滞在ＮＡＶＩ」をご確認ください。,大盛舘,神奈川県横浜市磯子区上町5-13,35.422481,139.625516,,磯子区,09
帰宅困難者一時滞在施設,被災状況によっては提供できない場合もあります。開設状況は、「一時滞在ＮＡＶＩ」をご確認ください。,鯉の湯,神奈川県横浜市磯子区滝頭三丁目4-9,35.418919,139.62442,,磯子区,09
帰宅困難者一時滞在施設,被災状況によっては提供できない場合もあります。開設状況は、「一時滞在ＮＡＶＩ」をご確認ください。,第二江陽館,神奈川県横浜市磯子区中浜町4-16,35.415009,139.626617,,磯子区,09
帰宅困難者一時滞在施設,被災状況によっては提供できない場合もあります。開設状況は、「一時滞在ＮＡＶＩ」をご確認ください。,磯子商業振興協同組合　磯子アイランドビル,神奈川県横浜市磯子区磯子三丁目6-23,35.401264,139.618729,,磯子区,09
帰宅困難者一時滞在施設,被災状況によっては提供できない場合もあります。開設状況は、「一時滞在ＮＡＶＩ」をご確認ください。,株式会社マーメイドケアー,神奈川県横浜市磯子区丸山一丁目15-25,35.42521,139.621266,,磯子区,09
帰宅困難者一時滞在施設,被災状況によっては提供できない場合もあります。開設状況は、「一時滞在ＮＡＶＩ」をご確認ください。,三菱重工業株式会社横浜製作所金沢工場,神奈川県横浜市金沢区幸浦一丁目8-1,35.369186,139.653519,,金沢区,10
帰宅困難者一時滞在施設,被災状況によっては提供できない場合もあります。開設状況は、「一時滞在ＮＡＶＩ」をご確認ください。,横浜金沢ハイテクセンター,神奈川県横浜市金沢区福浦一丁目1-1,35.354378,139.644882,,金沢区,10
帰宅困難者一時滞在施設,被災状況によっては提供できない場合もあります。開設状況は、「一時滞在ＮＡＶＩ」をご確認ください。,日本発条株式会社横浜事業所　本館棟,神奈川県横浜市金沢区福浦三丁目10,35.344009,139.647812,,金沢区,10
帰宅困難者一時滞在施設,被災状況によっては提供できない場合もあります。開設状況は、「一時滞在ＮＡＶＩ」をご確認ください。,新横浜グレイスホテル,神奈川県横浜市港北区新横浜三丁目6-15,35.508846,139.618301,,港北区,11
帰宅困難者一時滞在施設,被災状況によっては提供できない場合もあります。開設状況は、「一時滞在ＮＡＶＩ」をご確認ください。,新横浜国際ホテル,神奈川県横浜市港北区新横浜三丁目18-1,35.510395,139.616852,,港北区,11
帰宅困難者一時滞在施設,被災状況によっては提供できない場合もあります。開設状況は、「一時滞在ＮＡＶＩ」をご確認ください。,新横浜フジビューホテル,神奈川県横浜市港北区新横浜二丁目3-1,35.507771,139.614807,,港北区,11
帰宅困難者一時滞在施設,被災状況によっては提供できない場合もあります。開設状況は、「一時滞在ＮＡＶＩ」をご確認ください。,新横浜プリンスホテル,神奈川県横浜市港北区新横浜三丁目4,35.509809,139.619625,,港北区,11
帰宅困難者一時滞在施設,被災状況によっては提供できない場合もあります。開設状況は、「一時滞在ＮＡＶＩ」をご確認ください。,横浜アリーナ,神奈川県横浜市港北区新横浜三丁目10,35.512329,139.620117,,港北区,11
帰宅困難者一時滞在施設,被災状況によっては提供できない場合もあります。開設状況は、「一時滞在ＮＡＶＩ」をご確認ください。,学校法人岩崎学園　横浜医療情報専門学校,神奈川県横浜市港北区新横浜二丁目4-10,35.509033,139.616076,,港北区,11
帰宅困難者一時滞在施設,被災状況によっては提供できない場合もあります。開設状況は、「一時滞在ＮＡＶＩ」をご確認ください。,坂本祭典　新横浜斎場,神奈川県横浜市港北区新横浜二丁目2-9,35.506924,139.613434,,港北区,11
帰宅困難者一時滞在施設,被災状況によっては提供できない場合もあります。開設状況は、「一時滞在ＮＡＶＩ」をご確認ください。,学校法人岩崎学園　横浜デジタルアーツ専門学校,神奈川県横浜市港北区新横浜三丁目22-17,35.512642,139.618271,,港北区,11
帰宅困難者一時滞在施設,被災状況によっては提供できない場合もあります。開設状況は、「一時滞在ＮＡＶＩ」をご確認ください。,慶応義塾大学　日吉キャンパス,神奈川県横浜市港北区日吉四丁目1-1,35.551941,139.652542,,港北区,11
帰宅困難者一時滞在施設,被災状況によっては提供できない場合もあります。開設状況は、「一時滞在ＮＡＶＩ」をご確認ください。,日吉湯,神奈川県横浜市港北区日吉本町四丁目15-9,35.548546,139.633087,,港北区,11
帰宅困難者一時滞在施設,被災状況によっては提供できない場合もあります。開設状況は、「一時滞在ＮＡＶＩ」をご確認ください。,一の湯,神奈川県横浜市港北区大倉山三丁目2-18,35.521748,139.628571,,港北区,11
帰宅困難者一時滞在施設,被災状況によっては提供できない場合もあります。開設状況は、「一時滞在ＮＡＶＩ」をご確認ください。,坂本祭典　保土ヶ谷斎場,神奈川県横浜市保土ケ谷区岩井町124,35.44516,139.598716,,保土ケ谷区,07
帰宅困難者一時滞在施設,被災状況によっては提供できない場合もあります。開設状況は、「一時滞在ＮＡＶＩ」をご確認ください。,坂本祭典　和田町斎場,神奈川県横浜市保土ケ谷区和田一丁目21-15,35.465297,139.585697,,保土ケ谷区,07
帰宅困難者一時滞在施設,被災状況によっては提供できない場合もあります。開設状況は、「一時滞在ＮＡＶＩ」をご確認ください。,上星川浴場,神奈川県横浜市保土ケ谷区上星川三丁目3-1,35.4683,139.578644,,保土ケ谷区,07
帰宅困難者一時滞在施設,被災状況によっては提供できない場合もあります。開設状況は、「一時滞在ＮＡＶＩ」をご確認ください。,坂本祭典　上大岡斎場,神奈川県横浜市港南区最戸一丁目18-18,35.412689,139.595001,,港南区,06
帰宅困難者一時滞在施設,被災状況によっては提供できない場合もあります。開設状況は、「一時滞在ＮＡＶＩ」をご確認ください。,セントラルホール横浜葬儀社　上大岡駅前式場,神奈川県横浜市港南区上大岡西一丁目2-2,35.41217,139.596771,,港南区,06
帰宅困難者一時滞在施設,被災状況によっては提供できない場合もあります。開設状況は、「一時滞在ＮＡＶＩ」をご確認ください。,大成祭典　セレモニーホール大成第２,神奈川県横浜市青葉区青葉台二丁目18-6,35.544799,139.513093,,青葉区,13
帰宅困難者一時滞在施設,被災状況によっては提供できない場合もあります。開設状況は、「一時滞在ＮＡＶＩ」をご確認ください。,大林寺　山水閣,神奈川県横浜市緑区長津田六丁目2-7,35.529343,139.496765,,緑区,12
帰宅困難者一時滞在施設,被災状況によっては提供できない場合もあります。開設状況は、「一時滞在ＮＡＶＩ」をご確認ください。,学校法人森村学園,神奈川県横浜市緑区長津田町2695,35.52782502,139.4889887,,緑区,12
帰宅困難者一時滞在施設,被災状況によっては提供できない場合もあります。開設状況は、「一時滞在ＮＡＶＩ」をご確認ください。,坂本祭典　西谷斎場,神奈川県横浜市旭区西川島町1-5,35.478695,139.560532,,旭区,08
帰宅困難者一時滞在施設,被災状況によっては提供できない場合もあります。開設状況は、「一時滞在ＮＡＶＩ」をご確認ください。,坂本祭典　二俣川斎場,神奈川県横浜市旭区さちが丘48,35.461723,139.529556,,旭区,08
帰宅困難者一時滞在施設,被災状況によっては提供できない場合もあります。開設状況は、「一時滞在ＮＡＶＩ」をご確認ください。,戸塚法人会館,神奈川県横浜市戸塚区上倉田町449-2,35.398258,139.535873,,戸塚区,15
帰宅困難者一時滞在施設,被災状況によっては提供できない場合もあります。開設状況は、「一時滞在ＮＡＶＩ」をご確認ください。,学校法人岩崎学園　横浜保育福祉専門学校,神奈川県横浜市戸塚区品濃町550-8,35.43119,139.560089,,戸塚区,15
帰宅困難者一時滞在施設,被災状況によっては提供できない場合もあります。開設状況は、「一時滞在ＮＡＶＩ」をご確認ください。,学校法人岩崎学園　横浜リハビリテーション専門学校,神奈川県横浜市戸塚区品濃町550-1,35.43119,139.560089,,戸塚区,15
帰宅困難者一時滞在施設,被災状況によっては提供できない場合もあります。開設状況は、「一時滞在ＮＡＶＩ」をご確認ください。,コナカエンタープライズ株式会社　本社ビル,神奈川県横浜市戸塚区品濃町517-2,35.429119,139.558334,,戸塚区,15
帰宅困難者一時滞在施設,被災状況によっては提供できない場合もあります。開設状況は、「一時滞在ＮＡＶＩ」をご確認ください。,ファミリーアイランド　さくらゆ,神奈川県横浜市瀬谷区三ツ境12-10,35.466,139.502594,,瀬谷区,18
帰宅困難者一時滞在施設,被災状況によっては提供できない場合もあります。開設状況は、「一時滞在ＮＡＶＩ」をご確認ください。,葛の湯,神奈川県横浜市泉区中田南五丁目1-16,35.404423,139.510773,,泉区,17
帰宅困難者一時滞在施設,被災状況によっては提供できない場合もあります。開設状況は、「一時滞在ＮＡＶＩ」をご確認ください。,鶴見公会堂,神奈川県横浜市鶴見区豊岡町2-1 フーガ1 6階・7階,35.50855121,139.6751648,,鶴見区,01
帰宅困難者一時滞在施設,被災状況によっては提供できない場合もあります。開設状況は、「一時滞在ＮＡＶＩ」をご確認ください。,平沼記念体育館,神奈川県横浜市神奈川区三ツ沢西町3-1,35.46814,139.600494,,神奈川区,02
帰宅困難者一時滞在施設,被災状況によっては提供できない場合もあります。開設状況は、「一時滞在ＮＡＶＩ」をご確認ください。,神奈川公会堂,神奈川県横浜市神奈川区富家町1-3,35.479931,139.633194,,神奈川区,02
帰宅困難者一時滞在施設,被災状況によっては提供できない場合もあります。開設状況は、「一時滞在ＮＡＶＩ」をご確認ください。,横浜市民防災センター,神奈川県横浜市神奈川区沢渡4-7,35.471115,139.616837,,神奈川区,02
帰宅困難者一時滞在施設,被災状況によっては提供できない場合もあります。開設状況は、「一時滞在ＮＡＶＩ」をご確認ください。,西公会堂,神奈川県横浜市西区岡野一丁目6-41,35.46212,139.616028,,西区,03
帰宅困難者一時滞在施設,被災状況によっては提供できない場合もあります。開設状況は、「一時滞在ＮＡＶＩ」をご確認ください。,中央図書館,神奈川県横浜市西区老松町1,35.446873,139.625931,,西区,03
帰宅困難者一時滞在施設,被災状況によっては提供できない場合もあります。開設状況は、「一時滞在ＮＡＶＩ」をご確認ください。,市民活動支援センター,神奈川県横浜市中区桜木町1丁目1-56 みなとみらい21 クリーンセンタービル,35.45319,139.629587,,中区,04
帰宅困難者一時滞在施設,被災状況によっては提供できない場合もあります。開設状況は、「一時滞在ＮＡＶＩ」をご確認ください。,海上保安庁横浜海上防災基地,神奈川県横浜市中区新港一丁目2-1,35.455238,139.644562,,中区,04
帰宅困難者一時滞在施設,被災状況によっては提供できない場合もあります。開設状況は、「一時滞在ＮＡＶＩ」をご確認ください。,横浜第２合同庁舎（財務省横浜財務事務所管理）,神奈川県横浜市中区北仲通5丁目57,35.450871,139.63681,,中区,04
帰宅困難者一時滞在施設,被災状況によっては提供できない場合もあります。開設状況は、「一時滞在ＮＡＶＩ」をご確認ください。,関内ホール,神奈川県横浜市中区住吉町4丁目42-1,35.44719293,139.6362631,,中区,04
帰宅困難者一時滞在施設,被災状況によっては提供できない場合もあります。開設状況は、「一時滞在ＮＡＶＩ」をご確認ください。,開港記念会館,神奈川県横浜市中区本町1丁目6,35.447266,139.641244,,中区,04
帰宅困難者一時滞在施設,被災状況によっては提供できない場合もあります。開設状況は、「一時滞在ＮＡＶＩ」をご確認ください。,横浜文化体育館,神奈川県横浜市中区不老町2丁目7,35.441048,139.636475,,中区,04
帰宅困難者一時滞在施設,被災状況によっては提供できない場合もあります。開設状況は、「一時滞在ＮＡＶＩ」をご確認ください。,根岸地区センター,神奈川県横浜市磯子区馬場町1-42,35.421453,139.625799,,磯子区,09
帰宅困難者一時滞在施設,被災状況によっては提供できない場合もあります。開設状況は、「一時滞在ＮＡＶＩ」をご確認ください。,磯子公会堂,神奈川県横浜市磯子区磯子三丁目5-1,35.402023,139.619247,,磯子区,09
帰宅困難者一時滞在施設,被災状況によっては提供できない場合もあります。開設状況は、「一時滞在ＮＡＶＩ」をご確認ください。,磯子地区センター,神奈川県横浜市磯子区磯子三丁目1-41,35.405621,139.62085,,磯子区,09
帰宅困難者一時滞在施設,被災状況によっては提供できない場合もあります。開設状況は、「一時滞在ＮＡＶＩ」をご確認ください。,磯子スポーツセンター,神奈川県横浜市磯子区杉田五丁目32-25,35.382637,139.622726,,磯子区,09
帰宅困難者一時滞在施設,被災状況によっては提供できない場合もあります。開設状況は、「一時滞在ＮＡＶＩ」をご確認ください。,磯子区民文化センター杉田劇場,神奈川県横浜市磯子区杉田一丁目1-1,35.385113,139.619247,,磯子区,09
帰宅困難者一時滞在施設,被災状況によっては提供できない場合もあります。開設状況は、「一時滞在ＮＡＶＩ」をご確認ください。,洋光台第一中学校,神奈川県横浜市磯子区洋光台二丁目5-1,35.383477,139.589351,,磯子区,09
帰宅困難者一時滞在施設,被災状況によっては提供できない場合もあります。開設状況は、「一時滞在ＮＡＶＩ」をご確認ください。,富岡並木地区センター,神奈川県横浜市金沢区富岡東四丁目13-2,35.36776,139.636353,,金沢区,10
帰宅困難者一時滞在施設,被災状況によっては提供できない場合もあります。開設状況は、「一時滞在ＮＡＶＩ」をご確認ください。,能見台地区センター,神奈川県横浜市金沢区能見台東2-1,35.359501,139.626877,,金沢区,10
帰宅困難者一時滞在施設,被災状況によっては提供できない場合もあります。開設状況は、「一時滞在ＮＡＶＩ」をご確認ください。,金沢公会堂,神奈川県横浜市金沢区泥亀二丁目9-1,35.337692,139.624451,,金沢区,10
帰宅困難者一時滞在施設,被災状況によっては提供できない場合もあります。開設状況は、「一時滞在ＮＡＶＩ」をご確認ください。,六浦地区センター,神奈川県横浜市金沢区六浦五丁目20-2,35.325897,139.611832,,金沢区,10
帰宅困難者一時滞在施設,被災状況によっては提供できない場合もあります。開設状況は、「一時滞在ＮＡＶＩ」をご確認ください。,日吉地区センター,神奈川県横浜市港北区日吉本町一丁目11-13,35.555359,139.64299,,港北区,11
帰宅困難者一時滞在施設,被災状況によっては提供できない場合もあります。開設状況は、「一時滞在ＮＡＶＩ」をご確認ください。,綱島地区センター,神奈川県横浜市港北区綱島西一丁目14-26,35.537823,139.63208,,港北区,11
帰宅困難者一時滞在施設,被災状況によっては提供できない場合もあります。開設状況は、「一時滞在ＮＡＶＩ」をご確認ください。,港北公会堂,神奈川県横浜市港北区大豆戸町26-1,35.519085,139.63327,,港北区,11
帰宅困難者一時滞在施設,被災状況によっては提供できない場合もあります。開設状況は、「一時滞在ＮＡＶＩ」をご確認ください。,新田地区センター,神奈川県横浜市港北区新吉田町3236,35.532573,139.611226,,港北区,11
帰宅困難者一時滞在施設,被災状況によっては提供できない場合もあります。開設状況は、「一時滞在ＮＡＶＩ」をご確認ください。,港北スポーツセンター,神奈川県横浜市港北区大豆戸町518-1,35.515659,139.623608,,港北区,11
帰宅困難者一時滞在施設,被災状況によっては提供できない場合もあります。開設状況は、「一時滞在ＮＡＶＩ」をご確認ください。,保土ケ谷公会堂,神奈川県横浜市保土ケ谷区星川一丁目2-1,35.457429,139.596483,,保土ケ谷区,07
帰宅困難者一時滞在施設,被災状況によっては提供できない場合もあります。開設状況は、「一時滞在ＮＡＶＩ」をご確認ください。,蒔田コミュニティハウス,神奈川県横浜市南区宿町3丁目57,35.430586,139.609852,,南区,05
帰宅困難者一時滞在施設,被災状況によっては提供できない場合もあります。開設状況は、「一時滞在ＮＡＶＩ」をご確認ください。,南公会堂,神奈川県横浜市南区花之木町3丁目48-1,35.43173306,139.6088067,,南区,05
帰宅困難者一時滞在施設,被災状況によっては提供できない場合もあります。開設状況は、「一時滞在ＮＡＶＩ」をご確認ください。,男女共同参画センター横浜南,神奈川県横浜市南区南太田一丁目7-20,35.436565,139.615021,,南区,05
帰宅困難者一時滞在施設,被災状況によっては提供できない場合もあります。開設状況は、「一時滞在ＮＡＶＩ」をご確認ください。,港南区民文化センターひまわりの郷,神奈川県横浜市港南区上大岡西一丁目6-1号 4階,35.407841,139.596069,,港南区,06
帰宅困難者一時滞在施設,被災状況によっては提供できない場合もあります。開設状況は、「一時滞在ＮＡＶＩ」をご確認ください。,福祉保健研修交流センターウィリング横浜,神奈川県横浜市港南区上大岡西一丁目6-1号 4階,35.407841,139.596069,,港南区,06
帰宅困難者一時滞在施設,被災状況によっては提供できない場合もあります。開設状況は、「一時滞在ＮＡＶＩ」をご確認ください。,港南国際交流ラウンジ,神奈川県横浜市港南区上大岡西一丁目6-1号 13階,35.407841,139.596069,,港南区,06
帰宅困難者一時滞在施設,被災状況によっては提供できない場合もあります。開設状況は、「一時滞在ＮＡＶＩ」をご確認ください。,港南スポーツセンター,神奈川県横浜市港南区日野一丁目2-30,35.398937,139.588928,,港南区,06
帰宅困難者一時滞在施設,被災状況によっては提供できない場合もあります。開設状況は、「一時滞在ＮＡＶＩ」をご確認ください。,栄公会堂,神奈川県横浜市栄区桂町279-29,35.363302,139.553181,,栄区,16
帰宅困難者一時滞在施設,被災状況によっては提供できない場合もあります。開設状況は、「一時滞在ＮＡＶＩ」をご確認ください。,栄スポーツセンター,神奈川県横浜市栄区桂町279-29,35.363302,139.553181,,栄区,16
帰宅困難者一時滞在施設,被災状況によっては提供できない場合もあります。開設状況は、「一時滞在ＮＡＶＩ」をご確認ください。,歴史博物館,神奈川県横浜市都筑区中川中央一丁目18-1,35.550114,139.578018,,都筑区,14
帰宅困難者一時滞在施設,被災状況によっては提供できない場合もあります。開設状況は、「一時滞在ＮＡＶＩ」をご確認ください。,都筑公会堂,神奈川県横浜市都筑区茅ケ崎中央32-1,35.545067,139.570023,,都筑区,14
帰宅困難者一時滞在施設,被災状況によっては提供できない場合もあります。開設状況は、「一時滞在ＮＡＶＩ」をご確認ください。,山内地区センター,神奈川県横浜市青葉区あざみ野二丁目3-2,35.566322,139.553558,,青葉区,13
帰宅困難者一時滞在施設,被災状況によっては提供できない場合もあります。開設状況は、「一時滞在ＮＡＶＩ」をご確認ください。,青葉公会堂,神奈川県横浜市青葉区市ケ尾町31-4,35.553864,139.536285,,青葉区,13
帰宅困難者一時滞在施設,被災状況によっては提供できない場合もあります。開設状況は、「一時滞在ＮＡＶＩ」をご確認ください。,藤が丘地区センター,神奈川県横浜市青葉区藤が丘一丁目14-95,35.547104,139.52739,,青葉区,13
帰宅困難者一時滞在施設,被災状況によっては提供できない場合もあります。開設状況は、「一時滞在ＮＡＶＩ」をご確認ください。,白山地区センター,神奈川県横浜市緑区白山一丁目2-1,35.509783,139.56165,,緑区,12
帰宅困難者一時滞在施設,被災状況によっては提供できない場合もあります。開設状況は、「一時滞在ＮＡＶＩ」をご確認ください。,中山地区センター,神奈川県横浜市緑区中山町413-4 ハーモニーみどり,35.516448,139.54362,,緑区,12
帰宅困難者一時滞在施設,被災状況によっては提供できない場合もあります。開設状況は、「一時滞在ＮＡＶＩ」をご確認ください。,十日市場スポーツ会館,神奈川県横浜市緑区十日市場町1633,35.526222,139.510101,,緑区,12
帰宅困難者一時滞在施設,被災状況によっては提供できない場合もあります。開設状況は、「一時滞在ＮＡＶＩ」をご確認ください。,十日市場地区センター,神奈川県横浜市緑区十日市場町808-3,35.524624,139.515076,,緑区,12
帰宅困難者一時滞在施設,被災状況によっては提供できない場合もあります。開設状況は、「一時滞在ＮＡＶＩ」をご確認ください。,長津田地区センター,神奈川県横浜市緑区長津田町2327,35.530531,139.492044,,緑区,12
帰宅困難者一時滞在施設,被災状況によっては提供できない場合もあります。開設状況は、「一時滞在ＮＡＶＩ」をご確認ください。,白根地区センター,神奈川県横浜市旭区白根四丁目6-1,35.480949,139.546494,,旭区,08
帰宅困難者一時滞在施設,被災状況によっては提供できない場合もあります。開設状況は、「一時滞在ＮＡＶＩ」をご確認ください。,みなくる,神奈川県横浜市旭区鶴ケ峰二丁目82-1号 ココロット鶴ヶ峰4階,35.474724,139.549936,,旭区,08
帰宅困難者一時滞在施設,被災状況によっては提供できない場合もあります。開設状況は、「一時滞在ＮＡＶＩ」をご確認ください。,旭区民文化センターサンハート,神奈川県横浜市旭区二俣川1丁目3 二俣川ライフ5階,35.464107,139.532648,,旭区,08
帰宅困難者一時滞在施設,被災状況によっては提供できない場合もあります。開設状況は、「一時滞在ＮＡＶＩ」をご確認ください。,希望が丘地区センター,神奈川県横浜市旭区中希望が丘145-4,35.458336,139.511032,,旭区,08
帰宅困難者一時滞在施設,被災状況によっては提供できない場合もあります。開設状況は、「一時滞在ＮＡＶＩ」をご確認ください。,市沢地区センター,神奈川県横浜市旭区市沢町9,35.463257,139.557465,,旭区,08
帰宅困難者一時滞在施設,被災状況によっては提供できない場合もあります。開設状況は、「一時滞在ＮＡＶＩ」をご確認ください。,都岡地区センター,神奈川県横浜市旭区今宿西町292-2,35.485812,139.523857,,旭区,08
帰宅困難者一時滞在施設,被災状況によっては提供できない場合もあります。開設状況は、「一時滞在ＮＡＶＩ」をご確認ください。,鶴ケ峰コミュニティハウス,神奈川県横浜市旭区鶴ケ峰本町一丁目16-1,35.476391,139.539047,,旭区,08
帰宅困難者一時滞在施設,被災状況によっては提供できない場合もあります。開設状況は、「一時滞在ＮＡＶＩ」をご確認ください。,上白根コミュニティハウス,神奈川県横浜市旭区上白根町233-6,35.491118,139.537707,,旭区,08
帰宅困難者一時滞在施設,被災状況によっては提供できない場合もあります。開設状況は、「一時滞在ＮＡＶＩ」をご確認ください。,瀬谷公会堂,神奈川県横浜市瀬谷区二ツ橋町190,35.465769,139.498949,,瀬谷区,18
帰宅困難者一時滞在施設,被災状況によっては提供できない場合もあります。開設状況は、「一時滞在ＮＡＶＩ」をご確認ください。,瀬谷センター,神奈川県横浜市瀬谷区瀬谷三丁目18-1,35.466808,139.487091,,瀬谷区,18
帰宅困難者一時滞在施設,被災状況によっては提供できない場合もあります。開設状況は、「一時滞在ＮＡＶＩ」をご確認ください。,老人福祉センター泉寿荘,神奈川県横浜市泉区西が岡三丁目11,35.420452,139.514252,,泉区,17
帰宅困難者一時滞在施設,被災状況によっては提供できない場合もあります。開設状況は、「一時滞在ＮＡＶＩ」をご確認ください。,中川地区センター,神奈川県横浜市泉区桂坂4-1,35.425938,139.514145,,泉区,17
帰宅困難者一時滞在施設,被災状況によっては提供できない場合もあります。開設状況は、「一時滞在ＮＡＶＩ」をご確認ください。,立場地区センター,神奈川県横浜市泉区中田北一丁目9-14,35.416889,139.501068,,泉区,17
帰宅困難者一時滞在施設,被災状況によっては提供できない場合もあります。開設状況は、「一時滞在ＮＡＶＩ」をご確認ください。,下和泉地区センター（下和泉地域ケアプラザ）,神奈川県横浜市泉区和泉が丘一丁目26-1,35.40329,139.495384,,泉区,17
帰宅困難者一時滞在施設,被災状況によっては提供できない場合もあります。開設状況は、「一時滞在ＮＡＶＩ」をご確認ください。,泉公会堂,神奈川県横浜市泉区和泉町4636-2,35.418144,139.489014,,泉区,17
帰宅困難者一時滞在施設,被災状況によっては提供できない場合もあります。開設状況は、「一時滞在ＮＡＶＩ」をご確認ください。,上飯田地区センター,神奈川県横浜市泉区上飯田町3913-1,35.433779,139.483172,,泉区,17
帰宅困難者一時滞在施設,被災状況によっては提供できない場合もあります。開設状況は、「一時滞在ＮＡＶＩ」をご確認ください。,舞岡地区センター,神奈川県横浜市戸塚区舞岡町3020,35.403082,139.553533,,戸塚区,15
帰宅困難者一時滞在施設,被災状況によっては提供できない場合もあります。開設状況は、「一時滞在ＮＡＶＩ」をご確認ください。,東戸塚地区センター,神奈川県横浜市戸塚区川上町4-4,35.42871,139.555361,,戸塚区,15
帰宅困難者一時滞在施設,被災状況によっては提供できない場合もあります。開設状況は、「一時滞在ＮＡＶＩ」をご確認ください。,戸塚公会堂,神奈川県横浜市戸塚区戸塚町127 戸塚センター,35.397888,139.532588,,戸塚区,15
帰宅困難者一時滞在施設,被災状況によっては提供できない場合もあります。開設状況は、「一時滞在ＮＡＶＩ」をご確認ください。,戸塚スポーツセンター,神奈川県横浜市戸塚区上倉田町477,35.399093,139.535463,,戸塚区,15
帰宅困難者一時滞在施設,被災状況によっては提供できない場合もあります。開設状況は、「一時滞在ＮＡＶＩ」をご確認ください。,戸塚地区センター,神奈川県横浜市戸塚区戸塚町127 戸塚センター,35.397888,139.532588,,戸塚区,15
帰宅困難者一時滞在施設,被災状況によっては提供できない場合もあります。開設状況は、「一時滞在ＮＡＶＩ」をご確認ください。,男女共同参画センター横浜,神奈川県横浜市戸塚区上倉田町435-1,35.39786,139.53433,,戸塚区,15
帰宅困難者一時滞在施設,被災状況によっては提供できない場合もあります。開設状況は、「一時滞在ＮＡＶＩ」をご確認ください。,倉田コミュニティハウス,神奈川県横浜市戸塚区上倉田町1865-4,35.394417,139.541534,,戸塚区,15
帰宅困難者一時滞在施設,被災状況によっては提供できない場合もあります。開設状況は、「一時滞在ＮＡＶＩ」をご確認ください。,老人福祉センター戸塚柏桜荘,神奈川県横浜市戸塚区戸塚町2304-5,35.385555,139.523913,,戸塚区,15
帰宅困難者一時滞在施設,被災状況によっては提供できない場合もあります。開設状況は、「一時滞在ＮＡＶＩ」をご確認ください。,踊場地区センター,神奈川県横浜市戸塚区汲沢二丁目23-1,35.400764,139.518143,,戸塚区,15
帰宅困難者一時滞在施設,被災状況によっては提供できない場合もあります。開設状況は、「一時滞在ＮＡＶＩ」をご確認ください。,踊場公園こどもログハウス,神奈川県横浜市戸塚区汲沢八丁目11,35.403419,139.515976,,戸塚区,15
帰宅困難者一時滞在施設,被災状況によっては提供できない場合もあります。開設状況は、「一時滞在ＮＡＶＩ」をご確認ください。,大正地区センター,神奈川県横浜市戸塚区原宿三丁目59-1,35.381035,139.503732,,戸塚区,15
帰宅困難者一時滞在施設,被災状況によっては提供できない場合もあります。開設状況は、「一時滞在ＮＡＶＩ」をご確認ください。,上矢部地区センター,神奈川県横浜市戸塚区上矢部町2342,35.41904,139.527972,,戸塚区,15
